<?xml version="1.0" encoding="UTF-8"?>
<gpx version="1.1" creator="WindRide fixture (synthetic, shaped like a bikeland.fi export)" xmlns="http://www.topografix.com/GPX/1/1">
  <metadata>
    <name>Bikeland &amp; sample</name>
  </metadata>
  <trk>
    <name>Nuuksio gravel loop</name>
    <trkseg>
      <trkpt lat="60.314327" lon="24.5015"></trkpt>
      <trkpt lat="60.314293" lon="24.503589"></trkpt>
      <trkpt lat="60.314191" lon="24.505669"></trkpt>
      <trkpt lat="60.314022" lon="24.507732"></trkpt>
      <trkpt lat="60.313787" lon="24.509767"></trkpt>
      <trkpt lat="60.313487" lon="24.511767"></trkpt>
      <trkpt lat="60.313122" lon="24.513724"></trkpt>
      <trkpt lat="60.312694" lon="24.515627"></trkpt>
      <trkpt lat="60.312206" lon="24.517471"></trkpt>
      <trkpt lat="60.311659" lon="24.519246"></trkpt>
      <trkpt lat="60.311056" lon="24.520945"></trkpt>
      <trkpt lat="60.310399" lon="24.522561"></trkpt>
      <trkpt lat="60.309691" lon="24.524086"></trkpt>
      <trkpt lat="60.308935" lon="24.525515"></trkpt>
      <trkpt lat="60.308135" lon="24.526841"></trkpt>
      <trkpt lat="60.307293" lon="24.528059"></trkpt>
      <trkpt lat="60.306413" lon="24.529162"></trkpt>
      <trkpt lat="60.3055" lon="24.530148"></trkpt>
      <trkpt lat="60.304557" lon="24.53101"></trkpt>
      <trkpt lat="60.303587" lon="24.531747"></trkpt>
      <trkpt lat="60.302596" lon="24.532353"></trkpt>
      <trkpt lat="60.301588" lon="24.532828"></trkpt>
      <trkpt lat="60.300566" lon="24.533168"></trkpt>
      <trkpt lat="60.299535" lon="24.533373"></trkpt>
      <trkpt lat="60.2985" lon="24.533442"></trkpt>
      <trkpt lat="60.297465" lon="24.533373"></trkpt>
      <trkpt lat="60.296434" lon="24.533168"></trkpt>
      <trkpt lat="60.295412" lon="24.532828"></trkpt>
      <trkpt lat="60.294404" lon="24.532353"></trkpt>
      <trkpt lat="60.293413" lon="24.531747"></trkpt>
      <trkpt lat="60.292443" lon="24.53101"></trkpt>
      <trkpt lat="60.2915" lon="24.530148"></trkpt>
      <trkpt lat="60.290587" lon="24.529162"></trkpt>
      <trkpt lat="60.289707" lon="24.528059"></trkpt>
      <trkpt lat="60.288865" lon="24.526841"></trkpt>
      <trkpt lat="60.288065" lon="24.525515"></trkpt>
      <trkpt lat="60.287309" lon="24.524086"></trkpt>
      <trkpt lat="60.286601" lon="24.522561"></trkpt>
      <trkpt lat="60.285944" lon="24.520945"></trkpt>
      <trkpt lat="60.285341" lon="24.519246"></trkpt>
      <trkpt lat="60.284794" lon="24.517471"></trkpt>
      <trkpt lat="60.284306" lon="24.515627"></trkpt>
      <trkpt lat="60.283878" lon="24.513724"></trkpt>
      <trkpt lat="60.283513" lon="24.511767"></trkpt>
      <trkpt lat="60.283213" lon="24.509767"></trkpt>
      <trkpt lat="60.282978" lon="24.507732"></trkpt>
      <trkpt lat="60.282809" lon="24.505669"></trkpt>
      <trkpt lat="60.282707" lon="24.503589"></trkpt>
      <trkpt lat="60.282673" lon="24.5015"></trkpt>
      <trkpt lat="60.282707" lon="24.499411"></trkpt>
      <trkpt lat="60.282809" lon="24.497331"></trkpt>
      <trkpt lat="60.282978" lon="24.495268"></trkpt>
      <trkpt lat="60.283213" lon="24.493233"></trkpt>
      <trkpt lat="60.283513" lon="24.491233"></trkpt>
      <trkpt lat="60.283878" lon="24.489276"></trkpt>
      <trkpt lat="60.284306" lon="24.487373"></trkpt>
      <trkpt lat="60.284794" lon="24.485529"></trkpt>
      <trkpt lat="60.285341" lon="24.483754"></trkpt>
      <trkpt lat="60.285944" lon="24.482055"></trkpt>
      <trkpt lat="60.286601" lon="24.480439"></trkpt>
      <trkpt lat="60.287309" lon="24.478914"></trkpt>
      <trkpt lat="60.288065" lon="24.477485"></trkpt>
      <trkpt lat="60.288865" lon="24.476159"></trkpt>
      <trkpt lat="60.289707" lon="24.474941"></trkpt>
      <trkpt lat="60.290587" lon="24.473838"></trkpt>
      <trkpt lat="60.2915" lon="24.472852"></trkpt>
      <trkpt lat="60.292443" lon="24.47199"></trkpt>
      <trkpt lat="60.293413" lon="24.471253"></trkpt>
      <trkpt lat="60.294404" lon="24.470647"></trkpt>
      <trkpt lat="60.295412" lon="24.470172"></trkpt>
      <trkpt lat="60.296434" lon="24.469832"></trkpt>
      <trkpt lat="60.297465" lon="24.469627"></trkpt>
      <trkpt lat="60.2985" lon="24.469558"></trkpt>
      <trkpt lat="60.299535" lon="24.469627"></trkpt>
      <trkpt lat="60.300566" lon="24.469832"></trkpt>
      <trkpt lat="60.301588" lon="24.470172"></trkpt>
      <trkpt lat="60.302596" lon="24.470647"></trkpt>
      <trkpt lat="60.303587" lon="24.471253"></trkpt>
      <trkpt lat="60.304557" lon="24.47199"></trkpt>
      <trkpt lat="60.3055" lon="24.472852"></trkpt>
      <trkpt lat="60.306413" lon="24.473838"></trkpt>
      <trkpt lat="60.307293" lon="24.474941"></trkpt>
      <trkpt lat="60.308135" lon="24.476159"></trkpt>
      <trkpt lat="60.308935" lon="24.477485"></trkpt>
      <trkpt lat="60.309691" lon="24.478914"></trkpt>
      <trkpt lat="60.310399" lon="24.480439"></trkpt>
      <trkpt lat="60.311056" lon="24.482055"></trkpt>
      <trkpt lat="60.311659" lon="24.483754"></trkpt>
      <trkpt lat="60.312206" lon="24.485529"></trkpt>
      <trkpt lat="60.312694" lon="24.487373"></trkpt>
      <trkpt lat="60.313122" lon="24.489276"></trkpt>
      <trkpt lat="60.313487" lon="24.491233"></trkpt>
      <trkpt lat="60.313787" lon="24.493233"></trkpt>
      <trkpt lat="60.314022" lon="24.495268"></trkpt>
      <trkpt lat="60.314191" lon="24.497331"></trkpt>
      <trkpt lat="60.314293" lon="24.499411"></trkpt>
      <trkpt lat="60.314327" lon="24.5015"></trkpt>
    </trkseg>
  </trk>
</gpx>
