<?xml version="1.0" encoding="UTF-8"?>
<gpx version="1.1" creator="WindRide replay" xmlns="http://www.topografix.com/GPX/1/1" xmlns:xsi="http://www.w3.org/2001/XMLSchema-instance" xsi:schemaLocation="http://www.topografix.com/GPX/1/1 http://www.topografix.com/GPX/1/1/gpx.xsd">
  <metadata>
    <name>WindRide clean-loop trace</name>
  </metadata>
  <trk>
    <name>WindRide clean-loop trace</name>
    <trkseg>
      <trkpt lat="60.15" lon="24.65"><time>2026-07-10T09:00:00.000Z</time></trkpt>
      <trkpt lat="60.15" lon="24.650125475001655"><time>2026-07-10T09:00:01.000Z</time></trkpt>
      <trkpt lat="60.15" lon="24.65025095000331"><time>2026-07-10T09:00:02.000Z</time></trkpt>
      <trkpt lat="60.15" lon="24.65037642500497"><time>2026-07-10T09:00:03.000Z</time></trkpt>
      <trkpt lat="60.15" lon="24.650501900006628"><time>2026-07-10T09:00:04.000Z</time></trkpt>
      <trkpt lat="60.15" lon="24.650627375008284"><time>2026-07-10T09:00:05.000Z</time></trkpt>
      <trkpt lat="60.15" lon="24.65075285000994"><time>2026-07-10T09:00:06.000Z</time></trkpt>
      <trkpt lat="60.15" lon="24.6508783250116"><time>2026-07-10T09:00:07.000Z</time></trkpt>
      <trkpt lat="60.15" lon="24.651003800013257"><time>2026-07-10T09:00:08.000Z</time></trkpt>
      <trkpt lat="60.15" lon="24.651129275014913"><time>2026-07-10T09:00:09.000Z</time></trkpt>
      <trkpt lat="60.15" lon="24.65125475001657"><time>2026-07-10T09:00:10.000Z</time></trkpt>
      <trkpt lat="60.15" lon="24.65138022501823"><time>2026-07-10T09:00:11.000Z</time></trkpt>
      <trkpt lat="60.15" lon="24.651505700019886"><time>2026-07-10T09:00:12.000Z</time></trkpt>
      <trkpt lat="60.15" lon="24.651631175021542"><time>2026-07-10T09:00:13.000Z</time></trkpt>
      <trkpt lat="60.15" lon="24.6517566500232"><time>2026-07-10T09:00:14.000Z</time></trkpt>
      <trkpt lat="60.15" lon="24.65188212502486"><time>2026-07-10T09:00:15.000Z</time></trkpt>
      <trkpt lat="60.15" lon="24.652007600026515"><time>2026-07-10T09:00:16.000Z</time></trkpt>
      <trkpt lat="60.15" lon="24.65213307502817"><time>2026-07-10T09:00:17.000Z</time></trkpt>
      <trkpt lat="60.15" lon="24.652258550029828"><time>2026-07-10T09:00:18.000Z</time></trkpt>
      <trkpt lat="60.15" lon="24.652384025031488"><time>2026-07-10T09:00:19.000Z</time></trkpt>
      <trkpt lat="60.15" lon="24.652509500033144"><time>2026-07-10T09:00:20.000Z</time></trkpt>
      <trkpt lat="60.15" lon="24.6526349750348"><time>2026-07-10T09:00:21.000Z</time></trkpt>
      <trkpt lat="60.15" lon="24.652760450036457"><time>2026-07-10T09:00:22.000Z</time></trkpt>
      <trkpt lat="60.15" lon="24.652885925038117"><time>2026-07-10T09:00:23.000Z</time></trkpt>
      <trkpt lat="60.15" lon="24.653011400039773"><time>2026-07-10T09:00:24.000Z</time></trkpt>
      <trkpt lat="60.15" lon="24.65313687504143"><time>2026-07-10T09:00:25.000Z</time></trkpt>
      <trkpt lat="60.15" lon="24.653262350043086"><time>2026-07-10T09:00:26.000Z</time></trkpt>
      <trkpt lat="60.15" lon="24.653387825044742"><time>2026-07-10T09:00:27.000Z</time></trkpt>
      <trkpt lat="60.15" lon="24.653513300046402"><time>2026-07-10T09:00:28.000Z</time></trkpt>
      <trkpt lat="60.15" lon="24.65363877504806"><time>2026-07-10T09:00:29.000Z</time></trkpt>
      <trkpt lat="60.15" lon="24.653764250049715"><time>2026-07-10T09:00:30.000Z</time></trkpt>
      <trkpt lat="60.15" lon="24.65388972505137"><time>2026-07-10T09:00:31.000Z</time></trkpt>
      <trkpt lat="60.15" lon="24.65401520005303"><time>2026-07-10T09:00:32.000Z</time></trkpt>
      <trkpt lat="60.15" lon="24.654140675054688"><time>2026-07-10T09:00:33.000Z</time></trkpt>
      <trkpt lat="60.15" lon="24.654266150056344"><time>2026-07-10T09:00:34.000Z</time></trkpt>
      <trkpt lat="60.15" lon="24.654391625058"><time>2026-07-10T09:00:35.000Z</time></trkpt>
      <trkpt lat="60.15" lon="24.65451710005966"><time>2026-07-10T09:00:36.000Z</time></trkpt>
      <trkpt lat="60.15" lon="24.654642575061317"><time>2026-07-10T09:00:37.000Z</time></trkpt>
      <trkpt lat="60.15" lon="24.654768050062973"><time>2026-07-10T09:00:38.000Z</time></trkpt>
      <trkpt lat="60.15" lon="24.65489352506463"><time>2026-07-10T09:00:39.000Z</time></trkpt>
      <trkpt lat="60.15" lon="24.65501900006629"><time>2026-07-10T09:00:40.000Z</time></trkpt>
      <trkpt lat="60.15" lon="24.655144475067946"><time>2026-07-10T09:00:41.000Z</time></trkpt>
      <trkpt lat="60.15" lon="24.655269950069602"><time>2026-07-10T09:00:42.000Z</time></trkpt>
      <trkpt lat="60.15" lon="24.65539542507126"><time>2026-07-10T09:00:43.000Z</time></trkpt>
      <trkpt lat="60.15" lon="24.65552090007292"><time>2026-07-10T09:00:44.000Z</time></trkpt>
      <trkpt lat="60.15" lon="24.655646375074575"><time>2026-07-10T09:00:45.000Z</time></trkpt>
      <trkpt lat="60.15" lon="24.65577185007623"><time>2026-07-10T09:00:46.000Z</time></trkpt>
      <trkpt lat="60.15" lon="24.655897325077888"><time>2026-07-10T09:00:47.000Z</time></trkpt>
      <trkpt lat="60.15" lon="24.656022800079548"><time>2026-07-10T09:00:48.000Z</time></trkpt>
      <trkpt lat="60.15" lon="24.656148275081204"><time>2026-07-10T09:00:49.000Z</time></trkpt>
      <trkpt lat="60.15" lon="24.65627375008286"><time>2026-07-10T09:00:50.000Z</time></trkpt>
      <trkpt lat="60.15" lon="24.656399225084517"><time>2026-07-10T09:00:51.000Z</time></trkpt>
      <trkpt lat="60.15" lon="24.656524700086173"><time>2026-07-10T09:00:52.000Z</time></trkpt>
      <trkpt lat="60.15" lon="24.656650175087833"><time>2026-07-10T09:00:53.000Z</time></trkpt>
      <trkpt lat="60.15" lon="24.65677565008949"><time>2026-07-10T09:00:54.000Z</time></trkpt>
      <trkpt lat="60.15" lon="24.656901125091146"><time>2026-07-10T09:00:55.000Z</time></trkpt>
      <trkpt lat="60.15" lon="24.657026600092802"><time>2026-07-10T09:00:56.000Z</time></trkpt>
      <trkpt lat="60.15" lon="24.657152075094462"><time>2026-07-10T09:00:57.000Z</time></trkpt>
      <trkpt lat="60.15" lon="24.65727755009612"><time>2026-07-10T09:00:58.000Z</time></trkpt>
      <trkpt lat="60.15" lon="24.657403025097775"><time>2026-07-10T09:00:59.000Z</time></trkpt>
      <trkpt lat="60.15" lon="24.65752850009943"><time>2026-07-10T09:01:00.000Z</time></trkpt>
      <trkpt lat="60.15" lon="24.65765397510109"><time>2026-07-10T09:01:01.000Z</time></trkpt>
      <trkpt lat="60.15" lon="24.657779450102748"><time>2026-07-10T09:01:02.000Z</time></trkpt>
      <trkpt lat="60.15" lon="24.657904925104404"><time>2026-07-10T09:01:03.000Z</time></trkpt>
      <trkpt lat="60.15" lon="24.65803040010606"><time>2026-07-10T09:01:04.000Z</time></trkpt>
      <trkpt lat="60.15" lon="24.65815587510772"><time>2026-07-10T09:01:05.000Z</time></trkpt>
      <trkpt lat="60.15" lon="24.658281350109377"><time>2026-07-10T09:01:06.000Z</time></trkpt>
      <trkpt lat="60.15" lon="24.658406825111033"><time>2026-07-10T09:01:07.000Z</time></trkpt>
      <trkpt lat="60.15" lon="24.65853230011269"><time>2026-07-10T09:01:08.000Z</time></trkpt>
      <trkpt lat="60.15" lon="24.65865777511435"><time>2026-07-10T09:01:09.000Z</time></trkpt>
      <trkpt lat="60.15" lon="24.658783250116006"><time>2026-07-10T09:01:10.000Z</time></trkpt>
      <trkpt lat="60.15" lon="24.658908725117662"><time>2026-07-10T09:01:11.000Z</time></trkpt>
      <trkpt lat="60.15" lon="24.65903420011932"><time>2026-07-10T09:01:12.000Z</time></trkpt>
      <trkpt lat="60.15" lon="24.65915967512098"><time>2026-07-10T09:01:13.000Z</time></trkpt>
      <trkpt lat="60.15" lon="24.659285150122635"><time>2026-07-10T09:01:14.000Z</time></trkpt>
      <trkpt lat="60.15" lon="24.65941062512429"><time>2026-07-10T09:01:15.000Z</time></trkpt>
      <trkpt lat="60.15" lon="24.659536100125948"><time>2026-07-10T09:01:16.000Z</time></trkpt>
      <trkpt lat="60.15" lon="24.659661575127604"><time>2026-07-10T09:01:17.000Z</time></trkpt>
      <trkpt lat="60.15" lon="24.659787050129264"><time>2026-07-10T09:01:18.000Z</time></trkpt>
      <trkpt lat="60.15" lon="24.65991252513092"><time>2026-07-10T09:01:19.000Z</time></trkpt>
      <trkpt lat="60.15" lon="24.660038000132577"><time>2026-07-10T09:01:20.000Z</time></trkpt>
      <trkpt lat="60.15" lon="24.660163475134233"><time>2026-07-10T09:01:21.000Z</time></trkpt>
      <trkpt lat="60.15" lon="24.660288950135893"><time>2026-07-10T09:01:22.000Z</time></trkpt>
      <trkpt lat="60.15" lon="24.66041442513755"><time>2026-07-10T09:01:23.000Z</time></trkpt>
      <trkpt lat="60.15" lon="24.660539900139206"><time>2026-07-10T09:01:24.000Z</time></trkpt>
      <trkpt lat="60.15" lon="24.660665375140862"><time>2026-07-10T09:01:25.000Z</time></trkpt>
      <trkpt lat="60.15" lon="24.660790850142522"><time>2026-07-10T09:01:26.000Z</time></trkpt>
      <trkpt lat="60.15" lon="24.66091632514418"><time>2026-07-10T09:01:27.000Z</time></trkpt>
      <trkpt lat="60.15" lon="24.661041800145835"><time>2026-07-10T09:01:28.000Z</time></trkpt>
      <trkpt lat="60.15" lon="24.66116727514749"><time>2026-07-10T09:01:29.000Z</time></trkpt>
      <trkpt lat="60.15" lon="24.66129275014915"><time>2026-07-10T09:01:30.000Z</time></trkpt>
      <trkpt lat="60.15" lon="24.661418225150808"><time>2026-07-10T09:01:31.000Z</time></trkpt>
      <trkpt lat="60.15" lon="24.661543700152464"><time>2026-07-10T09:01:32.000Z</time></trkpt>
      <trkpt lat="60.15" lon="24.66166917515412"><time>2026-07-10T09:01:33.000Z</time></trkpt>
      <trkpt lat="60.15" lon="24.66179465015578"><time>2026-07-10T09:01:34.000Z</time></trkpt>
      <trkpt lat="60.15" lon="24.661920125157437"><time>2026-07-10T09:01:35.000Z</time></trkpt>
      <trkpt lat="60.1500226966146" lon="24.662"><time>2026-07-10T09:01:36.000Z</time></trkpt>
      <trkpt lat="60.150085149417635" lon="24.662"><time>2026-07-10T09:01:37.000Z</time></trkpt>
      <trkpt lat="60.15014760222067" lon="24.662"><time>2026-07-10T09:01:38.000Z</time></trkpt>
      <trkpt lat="60.150210055023706" lon="24.662"><time>2026-07-10T09:01:39.000Z</time></trkpt>
      <trkpt lat="60.15027250782674" lon="24.662"><time>2026-07-10T09:01:40.000Z</time></trkpt>
      <trkpt lat="60.15033496062978" lon="24.662"><time>2026-07-10T09:01:41.000Z</time></trkpt>
      <trkpt lat="60.15039741343281" lon="24.662"><time>2026-07-10T09:01:42.000Z</time></trkpt>
      <trkpt lat="60.15045986623585" lon="24.662"><time>2026-07-10T09:01:43.000Z</time></trkpt>
      <trkpt lat="60.15052231903889" lon="24.662"><time>2026-07-10T09:01:44.000Z</time></trkpt>
      <trkpt lat="60.15058477184193" lon="24.662"><time>2026-07-10T09:01:45.000Z</time></trkpt>
      <trkpt lat="60.15064722464496" lon="24.662"><time>2026-07-10T09:01:46.000Z</time></trkpt>
      <trkpt lat="60.150709677448" lon="24.662"><time>2026-07-10T09:01:47.000Z</time></trkpt>
      <trkpt lat="60.150772130251035" lon="24.662"><time>2026-07-10T09:01:48.000Z</time></trkpt>
      <trkpt lat="60.15083458305407" lon="24.662"><time>2026-07-10T09:01:49.000Z</time></trkpt>
      <trkpt lat="60.150897035857106" lon="24.662"><time>2026-07-10T09:01:50.000Z</time></trkpt>
      <trkpt lat="60.15095948866014" lon="24.662"><time>2026-07-10T09:01:51.000Z</time></trkpt>
      <trkpt lat="60.15102194146318" lon="24.662"><time>2026-07-10T09:01:52.000Z</time></trkpt>
      <trkpt lat="60.15108439426621" lon="24.662"><time>2026-07-10T09:01:53.000Z</time></trkpt>
      <trkpt lat="60.15114684706925" lon="24.662"><time>2026-07-10T09:01:54.000Z</time></trkpt>
      <trkpt lat="60.15120929987229" lon="24.662"><time>2026-07-10T09:01:55.000Z</time></trkpt>
      <trkpt lat="60.15127175267533" lon="24.662"><time>2026-07-10T09:01:56.000Z</time></trkpt>
      <trkpt lat="60.15133420547836" lon="24.662"><time>2026-07-10T09:01:57.000Z</time></trkpt>
      <trkpt lat="60.1513966582814" lon="24.662"><time>2026-07-10T09:01:58.000Z</time></trkpt>
      <trkpt lat="60.151459111084435" lon="24.662"><time>2026-07-10T09:01:59.000Z</time></trkpt>
      <trkpt lat="60.15152156388747" lon="24.662"><time>2026-07-10T09:02:00.000Z</time></trkpt>
      <trkpt lat="60.15158401669051" lon="24.662"><time>2026-07-10T09:02:01.000Z</time></trkpt>
      <trkpt lat="60.15164646949354" lon="24.662"><time>2026-07-10T09:02:02.000Z</time></trkpt>
      <trkpt lat="60.15170892229658" lon="24.662"><time>2026-07-10T09:02:03.000Z</time></trkpt>
      <trkpt lat="60.151771375099614" lon="24.662"><time>2026-07-10T09:02:04.000Z</time></trkpt>
      <trkpt lat="60.15183382790266" lon="24.662"><time>2026-07-10T09:02:05.000Z</time></trkpt>
      <trkpt lat="60.15189628070569" lon="24.662"><time>2026-07-10T09:02:06.000Z</time></trkpt>
      <trkpt lat="60.15195873350873" lon="24.662"><time>2026-07-10T09:02:07.000Z</time></trkpt>
      <trkpt lat="60.152021186311764" lon="24.662"><time>2026-07-10T09:02:08.000Z</time></trkpt>
      <trkpt lat="60.1520836391148" lon="24.662"><time>2026-07-10T09:02:09.000Z</time></trkpt>
      <trkpt lat="60.152146091917835" lon="24.662"><time>2026-07-10T09:02:10.000Z</time></trkpt>
      <trkpt lat="60.15220854472087" lon="24.662"><time>2026-07-10T09:02:11.000Z</time></trkpt>
      <trkpt lat="60.15227099752391" lon="24.662"><time>2026-07-10T09:02:12.000Z</time></trkpt>
      <trkpt lat="60.15233345032694" lon="24.662"><time>2026-07-10T09:02:13.000Z</time></trkpt>
      <trkpt lat="60.15239590312998" lon="24.662"><time>2026-07-10T09:02:14.000Z</time></trkpt>
      <trkpt lat="60.15245835593302" lon="24.662"><time>2026-07-10T09:02:15.000Z</time></trkpt>
      <trkpt lat="60.15252080873606" lon="24.662"><time>2026-07-10T09:02:16.000Z</time></trkpt>
      <trkpt lat="60.15258326153909" lon="24.662"><time>2026-07-10T09:02:17.000Z</time></trkpt>
      <trkpt lat="60.15264571434213" lon="24.662"><time>2026-07-10T09:02:18.000Z</time></trkpt>
      <trkpt lat="60.152708167145164" lon="24.662"><time>2026-07-10T09:02:19.000Z</time></trkpt>
      <trkpt lat="60.1527706199482" lon="24.662"><time>2026-07-10T09:02:20.000Z</time></trkpt>
      <trkpt lat="60.152833072751235" lon="24.662"><time>2026-07-10T09:02:21.000Z</time></trkpt>
      <trkpt lat="60.15289552555427" lon="24.662"><time>2026-07-10T09:02:22.000Z</time></trkpt>
      <trkpt lat="60.15295797835731" lon="24.662"><time>2026-07-10T09:02:23.000Z</time></trkpt>
      <trkpt lat="60.15302043116034" lon="24.662"><time>2026-07-10T09:02:24.000Z</time></trkpt>
      <trkpt lat="60.15308288396338" lon="24.662"><time>2026-07-10T09:02:25.000Z</time></trkpt>
      <trkpt lat="60.15314533676642" lon="24.662"><time>2026-07-10T09:02:26.000Z</time></trkpt>
      <trkpt lat="60.15320778956946" lon="24.662"><time>2026-07-10T09:02:27.000Z</time></trkpt>
      <trkpt lat="60.15327024237249" lon="24.662"><time>2026-07-10T09:02:28.000Z</time></trkpt>
      <trkpt lat="60.15333269517553" lon="24.662"><time>2026-07-10T09:02:29.000Z</time></trkpt>
      <trkpt lat="60.153395147978564" lon="24.662"><time>2026-07-10T09:02:30.000Z</time></trkpt>
      <trkpt lat="60.1534576007816" lon="24.662"><time>2026-07-10T09:02:31.000Z</time></trkpt>
      <trkpt lat="60.153520053584636" lon="24.662"><time>2026-07-10T09:02:32.000Z</time></trkpt>
      <trkpt lat="60.15358250638767" lon="24.662"><time>2026-07-10T09:02:33.000Z</time></trkpt>
      <trkpt lat="60.15364495919071" lon="24.662"><time>2026-07-10T09:02:34.000Z</time></trkpt>
      <trkpt lat="60.15370741199374" lon="24.662"><time>2026-07-10T09:02:35.000Z</time></trkpt>
      <trkpt lat="60.153769864796786" lon="24.662"><time>2026-07-10T09:02:36.000Z</time></trkpt>
      <trkpt lat="60.15383231759982" lon="24.662"><time>2026-07-10T09:02:37.000Z</time></trkpt>
      <trkpt lat="60.15389477040286" lon="24.662"><time>2026-07-10T09:02:38.000Z</time></trkpt>
      <trkpt lat="60.15395722320589" lon="24.662"><time>2026-07-10T09:02:39.000Z</time></trkpt>
      <trkpt lat="60.15401967600893" lon="24.662"><time>2026-07-10T09:02:40.000Z</time></trkpt>
      <trkpt lat="60.154082128811964" lon="24.662"><time>2026-07-10T09:02:41.000Z</time></trkpt>
      <trkpt lat="60.154144581615" lon="24.662"><time>2026-07-10T09:02:42.000Z</time></trkpt>
      <trkpt lat="60.154207034418036" lon="24.662"><time>2026-07-10T09:02:43.000Z</time></trkpt>
      <trkpt lat="60.15426948722107" lon="24.662"><time>2026-07-10T09:02:44.000Z</time></trkpt>
      <trkpt lat="60.15433194002411" lon="24.662"><time>2026-07-10T09:02:45.000Z</time></trkpt>
      <trkpt lat="60.15439439282715" lon="24.662"><time>2026-07-10T09:02:46.000Z</time></trkpt>
      <trkpt lat="60.154456845630186" lon="24.662"><time>2026-07-10T09:02:47.000Z</time></trkpt>
      <trkpt lat="60.15451929843322" lon="24.662"><time>2026-07-10T09:02:48.000Z</time></trkpt>
      <trkpt lat="60.15458175123626" lon="24.662"><time>2026-07-10T09:02:49.000Z</time></trkpt>
      <trkpt lat="60.15464420403929" lon="24.662"><time>2026-07-10T09:02:50.000Z</time></trkpt>
      <trkpt lat="60.15470665684233" lon="24.662"><time>2026-07-10T09:02:51.000Z</time></trkpt>
      <trkpt lat="60.154769109645365" lon="24.662"><time>2026-07-10T09:02:52.000Z</time></trkpt>
      <trkpt lat="60.1548315624484" lon="24.662"><time>2026-07-10T09:02:53.000Z</time></trkpt>
      <trkpt lat="60.154894015251436" lon="24.662"><time>2026-07-10T09:02:54.000Z</time></trkpt>
      <trkpt lat="60.15495646805447" lon="24.662"><time>2026-07-10T09:02:55.000Z</time></trkpt>
      <trkpt lat="60.15501892085751" lon="24.662"><time>2026-07-10T09:02:56.000Z</time></trkpt>
      <trkpt lat="60.15508137366055" lon="24.662"><time>2026-07-10T09:02:57.000Z</time></trkpt>
      <trkpt lat="60.155143826463586" lon="24.662"><time>2026-07-10T09:02:58.000Z</time></trkpt>
      <trkpt lat="60.15520627926662" lon="24.662"><time>2026-07-10T09:02:59.000Z</time></trkpt>
      <trkpt lat="60.15526873206966" lon="24.662"><time>2026-07-10T09:03:00.000Z</time></trkpt>
      <trkpt lat="60.15533118487269" lon="24.662"><time>2026-07-10T09:03:01.000Z</time></trkpt>
      <trkpt lat="60.15539363767573" lon="24.662"><time>2026-07-10T09:03:02.000Z</time></trkpt>
      <trkpt lat="60.155456090478765" lon="24.662"><time>2026-07-10T09:03:03.000Z</time></trkpt>
      <trkpt lat="60.1555185432818" lon="24.662"><time>2026-07-10T09:03:04.000Z</time></trkpt>
      <trkpt lat="60.155580996084836" lon="24.662"><time>2026-07-10T09:03:05.000Z</time></trkpt>
      <trkpt lat="60.15564344888787" lon="24.662"><time>2026-07-10T09:03:06.000Z</time></trkpt>
      <trkpt lat="60.155705901690915" lon="24.662"><time>2026-07-10T09:03:07.000Z</time></trkpt>
      <trkpt lat="60.15576835449395" lon="24.662"><time>2026-07-10T09:03:08.000Z</time></trkpt>
      <trkpt lat="60.15583080729699" lon="24.662"><time>2026-07-10T09:03:09.000Z</time></trkpt>
      <trkpt lat="60.15589326010002" lon="24.662"><time>2026-07-10T09:03:10.000Z</time></trkpt>
      <trkpt lat="60.15595571290306" lon="24.662"><time>2026-07-10T09:03:11.000Z</time></trkpt>
      <trkpt lat="60.156018165706094" lon="24.662"><time>2026-07-10T09:03:12.000Z</time></trkpt>
      <trkpt lat="60.15608061850913" lon="24.662"><time>2026-07-10T09:03:13.000Z</time></trkpt>
      <trkpt lat="60.156143071312165" lon="24.662"><time>2026-07-10T09:03:14.000Z</time></trkpt>
      <trkpt lat="60.1562055241152" lon="24.662"><time>2026-07-10T09:03:15.000Z</time></trkpt>
      <trkpt lat="60.15626797691824" lon="24.662"><time>2026-07-10T09:03:16.000Z</time></trkpt>
      <trkpt lat="60.15633042972128" lon="24.662"><time>2026-07-10T09:03:17.000Z</time></trkpt>
      <trkpt lat="60.156392882524315" lon="24.662"><time>2026-07-10T09:03:18.000Z</time></trkpt>
      <trkpt lat="60.15645533532735" lon="24.662"><time>2026-07-10T09:03:19.000Z</time></trkpt>
      <trkpt lat="60.15651778813039" lon="24.662"><time>2026-07-10T09:03:20.000Z</time></trkpt>
      <trkpt lat="60.15658024093342" lon="24.662"><time>2026-07-10T09:03:21.000Z</time></trkpt>
      <trkpt lat="60.15664269373646" lon="24.662"><time>2026-07-10T09:03:22.000Z</time></trkpt>
      <trkpt lat="60.156705146539494" lon="24.662"><time>2026-07-10T09:03:23.000Z</time></trkpt>
      <trkpt lat="60.15676759934253" lon="24.662"><time>2026-07-10T09:03:24.000Z</time></trkpt>
      <trkpt lat="60.156830052145565" lon="24.662"><time>2026-07-10T09:03:25.000Z</time></trkpt>
      <trkpt lat="60.1568925049486" lon="24.662"><time>2026-07-10T09:03:26.000Z</time></trkpt>
      <trkpt lat="60.15695495775164" lon="24.662"><time>2026-07-10T09:03:27.000Z</time></trkpt>
      <trkpt lat="60.15701741055468" lon="24.662"><time>2026-07-10T09:03:28.000Z</time></trkpt>
      <trkpt lat="60.157079863357716" lon="24.662"><time>2026-07-10T09:03:29.000Z</time></trkpt>
      <trkpt lat="60.15714231616075" lon="24.662"><time>2026-07-10T09:03:30.000Z</time></trkpt>
      <trkpt lat="60.15720476896379" lon="24.662"><time>2026-07-10T09:03:31.000Z</time></trkpt>
      <trkpt lat="60.15726722176682" lon="24.662"><time>2026-07-10T09:03:32.000Z</time></trkpt>
      <trkpt lat="60.15732967456986" lon="24.662"><time>2026-07-10T09:03:33.000Z</time></trkpt>
      <trkpt lat="60.157392127372894" lon="24.662"><time>2026-07-10T09:03:34.000Z</time></trkpt>
      <trkpt lat="60.15745458017593" lon="24.662"><time>2026-07-10T09:03:35.000Z</time></trkpt>
      <trkpt lat="60.157517032978966" lon="24.662"><time>2026-07-10T09:03:36.000Z</time></trkpt>
      <trkpt lat="60.157579485782" lon="24.662"><time>2026-07-10T09:03:37.000Z</time></trkpt>
      <trkpt lat="60.157641938585044" lon="24.662"><time>2026-07-10T09:03:38.000Z</time></trkpt>
      <trkpt lat="60.15770439138808" lon="24.662"><time>2026-07-10T09:03:39.000Z</time></trkpt>
      <trkpt lat="60.157766844191116" lon="24.662"><time>2026-07-10T09:03:40.000Z</time></trkpt>
      <trkpt lat="60.15782929699415" lon="24.662"><time>2026-07-10T09:03:41.000Z</time></trkpt>
      <trkpt lat="60.15789174979719" lon="24.662"><time>2026-07-10T09:03:42.000Z</time></trkpt>
      <trkpt lat="60.15795420260022" lon="24.662"><time>2026-07-10T09:03:43.000Z</time></trkpt>
      <trkpt lat="60.15801665540326" lon="24.662"><time>2026-07-10T09:03:44.000Z</time></trkpt>
      <trkpt lat="60.158079108206294" lon="24.662"><time>2026-07-10T09:03:45.000Z</time></trkpt>
      <trkpt lat="60.15814156100933" lon="24.662"><time>2026-07-10T09:03:46.000Z</time></trkpt>
      <trkpt lat="60.158204013812366" lon="24.662"><time>2026-07-10T09:03:47.000Z</time></trkpt>
      <trkpt lat="60.1582664666154" lon="24.662"><time>2026-07-10T09:03:48.000Z</time></trkpt>
      <trkpt lat="60.158328919418445" lon="24.662"><time>2026-07-10T09:03:49.000Z</time></trkpt>
      <trkpt lat="60.15839137222148" lon="24.662"><time>2026-07-10T09:03:50.000Z</time></trkpt>
      <trkpt lat="60.158453825024516" lon="24.662"><time>2026-07-10T09:03:51.000Z</time></trkpt>
      <trkpt lat="60.15851627782755" lon="24.662"><time>2026-07-10T09:03:52.000Z</time></trkpt>
      <trkpt lat="60.15857873063059" lon="24.662"><time>2026-07-10T09:03:53.000Z</time></trkpt>
      <trkpt lat="60.15864118343362" lon="24.662"><time>2026-07-10T09:03:54.000Z</time></trkpt>
      <trkpt lat="60.15870363623666" lon="24.662"><time>2026-07-10T09:03:55.000Z</time></trkpt>
      <trkpt lat="60.158766089039695" lon="24.662"><time>2026-07-10T09:03:56.000Z</time></trkpt>
      <trkpt lat="60.15882854184273" lon="24.662"><time>2026-07-10T09:03:57.000Z</time></trkpt>
      <trkpt lat="60.158890994645766" lon="24.662"><time>2026-07-10T09:03:58.000Z</time></trkpt>
      <trkpt lat="60.15895344744881" lon="24.662"><time>2026-07-10T09:03:59.000Z</time></trkpt>
      <trkpt lat="60.159015900251845" lon="24.662"><time>2026-07-10T09:04:00.000Z</time></trkpt>
      <trkpt lat="60.15907835305488" lon="24.662"><time>2026-07-10T09:04:01.000Z</time></trkpt>
      <trkpt lat="60.159140805857916" lon="24.662"><time>2026-07-10T09:04:02.000Z</time></trkpt>
      <trkpt lat="60.15920325866095" lon="24.662"><time>2026-07-10T09:04:03.000Z</time></trkpt>
      <trkpt lat="60.15926571146399" lon="24.662"><time>2026-07-10T09:04:04.000Z</time></trkpt>
      <trkpt lat="60.15932816426702" lon="24.662"><time>2026-07-10T09:04:05.000Z</time></trkpt>
      <trkpt lat="60.15939061707006" lon="24.662"><time>2026-07-10T09:04:06.000Z</time></trkpt>
      <trkpt lat="60.159453069873095" lon="24.662"><time>2026-07-10T09:04:07.000Z</time></trkpt>
      <trkpt lat="60.15951552267613" lon="24.662"><time>2026-07-10T09:04:08.000Z</time></trkpt>
      <trkpt lat="60.15957797547917" lon="24.662"><time>2026-07-10T09:04:09.000Z</time></trkpt>
      <trkpt lat="60.15964042828221" lon="24.662"><time>2026-07-10T09:04:10.000Z</time></trkpt>
      <trkpt lat="60.159702881085245" lon="24.662"><time>2026-07-10T09:04:11.000Z</time></trkpt>
      <trkpt lat="60.15976533388828" lon="24.662"><time>2026-07-10T09:04:12.000Z</time></trkpt>
      <trkpt lat="60.15982778669132" lon="24.662"><time>2026-07-10T09:04:13.000Z</time></trkpt>
      <trkpt lat="60.15989023949435" lon="24.662"><time>2026-07-10T09:04:14.000Z</time></trkpt>
      <trkpt lat="60.15995269229739" lon="24.662"><time>2026-07-10T09:04:15.000Z</time></trkpt>
      <trkpt lat="60.160015145100424" lon="24.662"><time>2026-07-10T09:04:16.000Z</time></trkpt>
      <trkpt lat="60.16007759790346" lon="24.662"><time>2026-07-10T09:04:17.000Z</time></trkpt>
      <trkpt lat="60.160140050706495" lon="24.662"><time>2026-07-10T09:04:18.000Z</time></trkpt>
      <trkpt lat="60.16020250350953" lon="24.662"><time>2026-07-10T09:04:19.000Z</time></trkpt>
      <trkpt lat="60.160264956312574" lon="24.662"><time>2026-07-10T09:04:20.000Z</time></trkpt>
      <trkpt lat="60.16032740911561" lon="24.662"><time>2026-07-10T09:04:21.000Z</time></trkpt>
      <trkpt lat="60.160389861918645" lon="24.662"><time>2026-07-10T09:04:22.000Z</time></trkpt>
      <trkpt lat="60.16045231472168" lon="24.662"><time>2026-07-10T09:04:23.000Z</time></trkpt>
      <trkpt lat="60.16051476752472" lon="24.662"><time>2026-07-10T09:04:24.000Z</time></trkpt>
      <trkpt lat="60.16057722032775" lon="24.662"><time>2026-07-10T09:04:25.000Z</time></trkpt>
      <trkpt lat="60.16063967313079" lon="24.662"><time>2026-07-10T09:04:26.000Z</time></trkpt>
      <trkpt lat="60.160702125933824" lon="24.662"><time>2026-07-10T09:04:27.000Z</time></trkpt>
      <trkpt lat="60.16076457873686" lon="24.662"><time>2026-07-10T09:04:28.000Z</time></trkpt>
      <trkpt lat="60.160827031539895" lon="24.662"><time>2026-07-10T09:04:29.000Z</time></trkpt>
      <trkpt lat="60.16088948434294" lon="24.662"><time>2026-07-10T09:04:30.000Z</time></trkpt>
      <trkpt lat="60.160951937145974" lon="24.662"><time>2026-07-10T09:04:31.000Z</time></trkpt>
      <trkpt lat="60.16101438994901" lon="24.662"><time>2026-07-10T09:04:32.000Z</time></trkpt>
      <trkpt lat="60.161076842752045" lon="24.662"><time>2026-07-10T09:04:33.000Z</time></trkpt>
      <trkpt lat="60.16113929555508" lon="24.662"><time>2026-07-10T09:04:34.000Z</time></trkpt>
      <trkpt lat="60.16120174835812" lon="24.662"><time>2026-07-10T09:04:35.000Z</time></trkpt>
      <trkpt lat="60.16126420116115" lon="24.662"><time>2026-07-10T09:04:36.000Z</time></trkpt>
      <trkpt lat="60.16132665396419" lon="24.662"><time>2026-07-10T09:04:37.000Z</time></trkpt>
      <trkpt lat="60.161389106767224" lon="24.662"><time>2026-07-10T09:04:38.000Z</time></trkpt>
      <trkpt lat="60.16145155957026" lon="24.662"><time>2026-07-10T09:04:39.000Z</time></trkpt>
      <trkpt lat="60.1615140123733" lon="24.662"><time>2026-07-10T09:04:40.000Z</time></trkpt>
      <trkpt lat="60.16157646517634" lon="24.662"><time>2026-07-10T09:04:41.000Z</time></trkpt>
      <trkpt lat="60.161638917979374" lon="24.662"><time>2026-07-10T09:04:42.000Z</time></trkpt>
      <trkpt lat="60.16170137078241" lon="24.662"><time>2026-07-10T09:04:43.000Z</time></trkpt>
      <trkpt lat="60.161763823585446" lon="24.662"><time>2026-07-10T09:04:44.000Z</time></trkpt>
      <trkpt lat="60.16182627638848" lon="24.662"><time>2026-07-10T09:04:45.000Z</time></trkpt>
      <trkpt lat="60.16188872919152" lon="24.662"><time>2026-07-10T09:04:46.000Z</time></trkpt>
      <trkpt lat="60.16195118199455" lon="24.662"><time>2026-07-10T09:04:47.000Z</time></trkpt>
      <trkpt lat="60.162" lon="24.661972596091427"><time>2026-07-10T09:04:48.000Z</time></trkpt>
      <trkpt lat="60.162" lon="24.66184707527655"><time>2026-07-10T09:04:49.000Z</time></trkpt>
      <trkpt lat="60.162" lon="24.661721554461675"><time>2026-07-10T09:04:50.000Z</time></trkpt>
      <trkpt lat="60.162" lon="24.661596033646795"><time>2026-07-10T09:04:51.000Z</time></trkpt>
      <trkpt lat="60.162" lon="24.66147051283192"><time>2026-07-10T09:04:52.000Z</time></trkpt>
      <trkpt lat="60.162" lon="24.661344992017042"><time>2026-07-10T09:04:53.000Z</time></trkpt>
      <trkpt lat="60.162" lon="24.661219471202163"><time>2026-07-10T09:04:54.000Z</time></trkpt>
      <trkpt lat="60.162" lon="24.661093950387286"><time>2026-07-10T09:04:55.000Z</time></trkpt>
      <trkpt lat="60.162" lon="24.66096842957241"><time>2026-07-10T09:04:56.000Z</time></trkpt>
      <trkpt lat="60.162" lon="24.660842908757534"><time>2026-07-10T09:04:57.000Z</time></trkpt>
      <trkpt lat="60.162" lon="24.660717387942654"><time>2026-07-10T09:04:58.000Z</time></trkpt>
      <trkpt lat="60.162" lon="24.660591867127778"><time>2026-07-10T09:04:59.000Z</time></trkpt>
      <trkpt lat="60.162" lon="24.6604663463129"><time>2026-07-10T09:05:00.000Z</time></trkpt>
      <trkpt lat="60.162" lon="24.66034082549802"><time>2026-07-10T09:05:01.000Z</time></trkpt>
      <trkpt lat="60.162" lon="24.660215304683145"><time>2026-07-10T09:05:02.000Z</time></trkpt>
      <trkpt lat="60.162" lon="24.66008978386827"><time>2026-07-10T09:05:03.000Z</time></trkpt>
      <trkpt lat="60.162" lon="24.65996426305339"><time>2026-07-10T09:05:04.000Z</time></trkpt>
      <trkpt lat="60.162" lon="24.659838742238513"><time>2026-07-10T09:05:05.000Z</time></trkpt>
      <trkpt lat="60.162" lon="24.659713221423637"><time>2026-07-10T09:05:06.000Z</time></trkpt>
      <trkpt lat="60.162" lon="24.659587700608757"><time>2026-07-10T09:05:07.000Z</time></trkpt>
      <trkpt lat="60.162" lon="24.65946217979388"><time>2026-07-10T09:05:08.000Z</time></trkpt>
      <trkpt lat="60.162" lon="24.659336658979004"><time>2026-07-10T09:05:09.000Z</time></trkpt>
      <trkpt lat="60.162" lon="24.659211138164128"><time>2026-07-10T09:05:10.000Z</time></trkpt>
      <trkpt lat="60.162" lon="24.65908561734925"><time>2026-07-10T09:05:11.000Z</time></trkpt>
      <trkpt lat="60.162" lon="24.658960096534372"><time>2026-07-10T09:05:12.000Z</time></trkpt>
      <trkpt lat="60.162" lon="24.658834575719496"><time>2026-07-10T09:05:13.000Z</time></trkpt>
      <trkpt lat="60.162" lon="24.658709054904616"><time>2026-07-10T09:05:14.000Z</time></trkpt>
      <trkpt lat="60.162" lon="24.65858353408974"><time>2026-07-10T09:05:15.000Z</time></trkpt>
      <trkpt lat="60.162" lon="24.658458013274863"><time>2026-07-10T09:05:16.000Z</time></trkpt>
      <trkpt lat="60.162" lon="24.658332492459984"><time>2026-07-10T09:05:17.000Z</time></trkpt>
      <trkpt lat="60.162" lon="24.658206971645107"><time>2026-07-10T09:05:18.000Z</time></trkpt>
      <trkpt lat="60.162" lon="24.65808145083023"><time>2026-07-10T09:05:19.000Z</time></trkpt>
      <trkpt lat="60.162" lon="24.657955930015355"><time>2026-07-10T09:05:20.000Z</time></trkpt>
      <trkpt lat="60.162" lon="24.657830409200475"><time>2026-07-10T09:05:21.000Z</time></trkpt>
      <trkpt lat="60.162" lon="24.6577048883856"><time>2026-07-10T09:05:22.000Z</time></trkpt>
      <trkpt lat="60.162" lon="24.657579367570722"><time>2026-07-10T09:05:23.000Z</time></trkpt>
      <trkpt lat="60.162" lon="24.657453846755843"><time>2026-07-10T09:05:24.000Z</time></trkpt>
      <trkpt lat="60.162" lon="24.657328325940966"><time>2026-07-10T09:05:25.000Z</time></trkpt>
      <trkpt lat="60.162" lon="24.65720280512609"><time>2026-07-10T09:05:26.000Z</time></trkpt>
      <trkpt lat="60.162" lon="24.65707728431121"><time>2026-07-10T09:05:27.000Z</time></trkpt>
      <trkpt lat="60.162" lon="24.656951763496334"><time>2026-07-10T09:05:28.000Z</time></trkpt>
      <trkpt lat="60.162" lon="24.656826242681458"><time>2026-07-10T09:05:29.000Z</time></trkpt>
      <trkpt lat="60.162" lon="24.656700721866578"><time>2026-07-10T09:05:30.000Z</time></trkpt>
      <trkpt lat="60.162" lon="24.6565752010517"><time>2026-07-10T09:05:31.000Z</time></trkpt>
      <trkpt lat="60.162" lon="24.656449680236825"><time>2026-07-10T09:05:32.000Z</time></trkpt>
      <trkpt lat="60.162" lon="24.65632415942195"><time>2026-07-10T09:05:33.000Z</time></trkpt>
      <trkpt lat="60.162" lon="24.65619863860707"><time>2026-07-10T09:05:34.000Z</time></trkpt>
      <trkpt lat="60.162" lon="24.656073117792193"><time>2026-07-10T09:05:35.000Z</time></trkpt>
      <trkpt lat="60.162" lon="24.655947596977317"><time>2026-07-10T09:05:36.000Z</time></trkpt>
      <trkpt lat="60.162" lon="24.655822076162437"><time>2026-07-10T09:05:37.000Z</time></trkpt>
      <trkpt lat="60.162" lon="24.65569655534756"><time>2026-07-10T09:05:38.000Z</time></trkpt>
      <trkpt lat="60.162" lon="24.655571034532684"><time>2026-07-10T09:05:39.000Z</time></trkpt>
      <trkpt lat="60.162" lon="24.655445513717805"><time>2026-07-10T09:05:40.000Z</time></trkpt>
      <trkpt lat="60.162" lon="24.65531999290293"><time>2026-07-10T09:05:41.000Z</time></trkpt>
      <trkpt lat="60.162" lon="24.655194472088052"><time>2026-07-10T09:05:42.000Z</time></trkpt>
      <trkpt lat="60.162" lon="24.655068951273176"><time>2026-07-10T09:05:43.000Z</time></trkpt>
      <trkpt lat="60.162" lon="24.654943430458296"><time>2026-07-10T09:05:44.000Z</time></trkpt>
      <trkpt lat="60.162" lon="24.65481790964342"><time>2026-07-10T09:05:45.000Z</time></trkpt>
      <trkpt lat="60.162" lon="24.654692388828543"><time>2026-07-10T09:05:46.000Z</time></trkpt>
      <trkpt lat="60.162" lon="24.654566868013664"><time>2026-07-10T09:05:47.000Z</time></trkpt>
      <trkpt lat="60.162" lon="24.654441347198787"><time>2026-07-10T09:05:48.000Z</time></trkpt>
      <trkpt lat="60.162" lon="24.65431582638391"><time>2026-07-10T09:05:49.000Z</time></trkpt>
      <trkpt lat="60.162" lon="24.65419030556903"><time>2026-07-10T09:05:50.000Z</time></trkpt>
      <trkpt lat="60.162" lon="24.654064784754155"><time>2026-07-10T09:05:51.000Z</time></trkpt>
      <trkpt lat="60.162" lon="24.65393926393928"><time>2026-07-10T09:05:52.000Z</time></trkpt>
      <trkpt lat="60.162" lon="24.6538137431244"><time>2026-07-10T09:05:53.000Z</time></trkpt>
      <trkpt lat="60.162" lon="24.653688222309523"><time>2026-07-10T09:05:54.000Z</time></trkpt>
      <trkpt lat="60.162" lon="24.653562701494646"><time>2026-07-10T09:05:55.000Z</time></trkpt>
      <trkpt lat="60.162" lon="24.65343718067977"><time>2026-07-10T09:05:56.000Z</time></trkpt>
      <trkpt lat="60.162" lon="24.65331165986489"><time>2026-07-10T09:05:57.000Z</time></trkpt>
      <trkpt lat="60.162" lon="24.653186139050014"><time>2026-07-10T09:05:58.000Z</time></trkpt>
      <trkpt lat="60.162" lon="24.653060618235138"><time>2026-07-10T09:05:59.000Z</time></trkpt>
      <trkpt lat="60.162" lon="24.652935097420258"><time>2026-07-10T09:06:00.000Z</time></trkpt>
      <trkpt lat="60.162" lon="24.65280957660538"><time>2026-07-10T09:06:01.000Z</time></trkpt>
      <trkpt lat="60.162" lon="24.652684055790505"><time>2026-07-10T09:06:02.000Z</time></trkpt>
      <trkpt lat="60.162" lon="24.652558534975626"><time>2026-07-10T09:06:03.000Z</time></trkpt>
      <trkpt lat="60.162" lon="24.65243301416075"><time>2026-07-10T09:06:04.000Z</time></trkpt>
      <trkpt lat="60.162" lon="24.652307493345873"><time>2026-07-10T09:06:05.000Z</time></trkpt>
      <trkpt lat="60.162" lon="24.652181972530997"><time>2026-07-10T09:06:06.000Z</time></trkpt>
      <trkpt lat="60.162" lon="24.652056451716117"><time>2026-07-10T09:06:07.000Z</time></trkpt>
      <trkpt lat="60.162" lon="24.65193093090124"><time>2026-07-10T09:06:08.000Z</time></trkpt>
      <trkpt lat="60.162" lon="24.651805410086364"><time>2026-07-10T09:06:09.000Z</time></trkpt>
      <trkpt lat="60.162" lon="24.651679889271485"><time>2026-07-10T09:06:10.000Z</time></trkpt>
      <trkpt lat="60.162" lon="24.65155436845661"><time>2026-07-10T09:06:11.000Z</time></trkpt>
      <trkpt lat="60.162" lon="24.651428847641732"><time>2026-07-10T09:06:12.000Z</time></trkpt>
      <trkpt lat="60.162" lon="24.651303326826852"><time>2026-07-10T09:06:13.000Z</time></trkpt>
      <trkpt lat="60.162" lon="24.651177806011976"><time>2026-07-10T09:06:14.000Z</time></trkpt>
      <trkpt lat="60.162" lon="24.6510522851971"><time>2026-07-10T09:06:15.000Z</time></trkpt>
      <trkpt lat="60.162" lon="24.65092676438222"><time>2026-07-10T09:06:16.000Z</time></trkpt>
      <trkpt lat="60.162" lon="24.650801243567344"><time>2026-07-10T09:06:17.000Z</time></trkpt>
      <trkpt lat="60.162" lon="24.650675722752467"><time>2026-07-10T09:06:18.000Z</time></trkpt>
      <trkpt lat="60.162" lon="24.65055020193759"><time>2026-07-10T09:06:19.000Z</time></trkpt>
      <trkpt lat="60.162" lon="24.65042468112271"><time>2026-07-10T09:06:20.000Z</time></trkpt>
      <trkpt lat="60.162" lon="24.650299160307835"><time>2026-07-10T09:06:21.000Z</time></trkpt>
      <trkpt lat="60.162" lon="24.65017363949296"><time>2026-07-10T09:06:22.000Z</time></trkpt>
      <trkpt lat="60.162" lon="24.65004811867808"><time>2026-07-10T09:06:23.000Z</time></trkpt>
      <trkpt lat="60.161961488615184" lon="24.65"><time>2026-07-10T09:06:24.000Z</time></trkpt>
      <trkpt lat="60.16189903581215" lon="24.65"><time>2026-07-10T09:06:25.000Z</time></trkpt>
      <trkpt lat="60.16183658300911" lon="24.65"><time>2026-07-10T09:06:26.000Z</time></trkpt>
      <trkpt lat="60.16177413020608" lon="24.65"><time>2026-07-10T09:06:27.000Z</time></trkpt>
      <trkpt lat="60.16171167740304" lon="24.65"><time>2026-07-10T09:06:28.000Z</time></trkpt>
      <trkpt lat="60.161649224600005" lon="24.65"><time>2026-07-10T09:06:29.000Z</time></trkpt>
      <trkpt lat="60.16158677179697" lon="24.65"><time>2026-07-10T09:06:30.000Z</time></trkpt>
      <trkpt lat="60.16152431899393" lon="24.65"><time>2026-07-10T09:06:31.000Z</time></trkpt>
      <trkpt lat="60.16146186619089" lon="24.65"><time>2026-07-10T09:06:32.000Z</time></trkpt>
      <trkpt lat="60.161399413387855" lon="24.65"><time>2026-07-10T09:06:33.000Z</time></trkpt>
      <trkpt lat="60.16133696058482" lon="24.65"><time>2026-07-10T09:06:34.000Z</time></trkpt>
      <trkpt lat="60.16127450778178" lon="24.65"><time>2026-07-10T09:06:35.000Z</time></trkpt>
      <trkpt lat="60.16121205497875" lon="24.65"><time>2026-07-10T09:06:36.000Z</time></trkpt>
      <trkpt lat="60.16114960217571" lon="24.65"><time>2026-07-10T09:06:37.000Z</time></trkpt>
      <trkpt lat="60.161087149372676" lon="24.65"><time>2026-07-10T09:06:38.000Z</time></trkpt>
      <trkpt lat="60.16102469656964" lon="24.65"><time>2026-07-10T09:06:39.000Z</time></trkpt>
      <trkpt lat="60.160962243766605" lon="24.65"><time>2026-07-10T09:06:40.000Z</time></trkpt>
      <trkpt lat="60.16089979096357" lon="24.65"><time>2026-07-10T09:06:41.000Z</time></trkpt>
      <trkpt lat="60.160837338160526" lon="24.65"><time>2026-07-10T09:06:42.000Z</time></trkpt>
      <trkpt lat="60.16077488535749" lon="24.65"><time>2026-07-10T09:06:43.000Z</time></trkpt>
      <trkpt lat="60.160712432554455" lon="24.65"><time>2026-07-10T09:06:44.000Z</time></trkpt>
      <trkpt lat="60.16064997975142" lon="24.65"><time>2026-07-10T09:06:45.000Z</time></trkpt>
      <trkpt lat="60.16058752694838" lon="24.65"><time>2026-07-10T09:06:46.000Z</time></trkpt>
      <trkpt lat="60.16052507414535" lon="24.65"><time>2026-07-10T09:06:47.000Z</time></trkpt>
      <trkpt lat="60.16046262134231" lon="24.65"><time>2026-07-10T09:06:48.000Z</time></trkpt>
      <trkpt lat="60.160400168539276" lon="24.65"><time>2026-07-10T09:06:49.000Z</time></trkpt>
      <trkpt lat="60.16033771573624" lon="24.65"><time>2026-07-10T09:06:50.000Z</time></trkpt>
      <trkpt lat="60.160275262933204" lon="24.65"><time>2026-07-10T09:06:51.000Z</time></trkpt>
      <trkpt lat="60.16021281013016" lon="24.65"><time>2026-07-10T09:06:52.000Z</time></trkpt>
      <trkpt lat="60.160150357327126" lon="24.65"><time>2026-07-10T09:06:53.000Z</time></trkpt>
      <trkpt lat="60.16008790452409" lon="24.65"><time>2026-07-10T09:06:54.000Z</time></trkpt>
      <trkpt lat="60.160025451721054" lon="24.65"><time>2026-07-10T09:06:55.000Z</time></trkpt>
      <trkpt lat="60.15996299891802" lon="24.65"><time>2026-07-10T09:06:56.000Z</time></trkpt>
      <trkpt lat="60.15990054611498" lon="24.65"><time>2026-07-10T09:06:57.000Z</time></trkpt>
      <trkpt lat="60.15983809331195" lon="24.65"><time>2026-07-10T09:06:58.000Z</time></trkpt>
      <trkpt lat="60.15977564050891" lon="24.65"><time>2026-07-10T09:06:59.000Z</time></trkpt>
      <trkpt lat="60.159713187705876" lon="24.65"><time>2026-07-10T09:07:00.000Z</time></trkpt>
      <trkpt lat="60.15965073490284" lon="24.65"><time>2026-07-10T09:07:01.000Z</time></trkpt>
      <trkpt lat="60.159588282099804" lon="24.65"><time>2026-07-10T09:07:02.000Z</time></trkpt>
      <trkpt lat="60.15952582929676" lon="24.65"><time>2026-07-10T09:07:03.000Z</time></trkpt>
      <trkpt lat="60.159463376493726" lon="24.65"><time>2026-07-10T09:07:04.000Z</time></trkpt>
      <trkpt lat="60.15940092369069" lon="24.65"><time>2026-07-10T09:07:05.000Z</time></trkpt>
      <trkpt lat="60.159338470887654" lon="24.65"><time>2026-07-10T09:07:06.000Z</time></trkpt>
      <trkpt lat="60.15927601808462" lon="24.65"><time>2026-07-10T09:07:07.000Z</time></trkpt>
      <trkpt lat="60.15921356528158" lon="24.65"><time>2026-07-10T09:07:08.000Z</time></trkpt>
      <trkpt lat="60.15915111247855" lon="24.65"><time>2026-07-10T09:07:09.000Z</time></trkpt>
      <trkpt lat="60.15908865967551" lon="24.65"><time>2026-07-10T09:07:10.000Z</time></trkpt>
      <trkpt lat="60.159026206872475" lon="24.65"><time>2026-07-10T09:07:11.000Z</time></trkpt>
      <trkpt lat="60.15896375406944" lon="24.65"><time>2026-07-10T09:07:12.000Z</time></trkpt>
      <trkpt lat="60.1589013012664" lon="24.65"><time>2026-07-10T09:07:13.000Z</time></trkpt>
      <trkpt lat="60.15883884846336" lon="24.65"><time>2026-07-10T09:07:14.000Z</time></trkpt>
      <trkpt lat="60.158776395660325" lon="24.65"><time>2026-07-10T09:07:15.000Z</time></trkpt>
      <trkpt lat="60.15871394285729" lon="24.65"><time>2026-07-10T09:07:16.000Z</time></trkpt>
      <trkpt lat="60.158651490054254" lon="24.65"><time>2026-07-10T09:07:17.000Z</time></trkpt>
      <trkpt lat="60.15858903725122" lon="24.65"><time>2026-07-10T09:07:18.000Z</time></trkpt>
      <trkpt lat="60.15852658444818" lon="24.65"><time>2026-07-10T09:07:19.000Z</time></trkpt>
      <trkpt lat="60.15846413164515" lon="24.65"><time>2026-07-10T09:07:20.000Z</time></trkpt>
      <trkpt lat="60.15840167884211" lon="24.65"><time>2026-07-10T09:07:21.000Z</time></trkpt>
      <trkpt lat="60.158339226039075" lon="24.65"><time>2026-07-10T09:07:22.000Z</time></trkpt>
      <trkpt lat="60.15827677323603" lon="24.65"><time>2026-07-10T09:07:23.000Z</time></trkpt>
      <trkpt lat="60.158214320433" lon="24.65"><time>2026-07-10T09:07:24.000Z</time></trkpt>
      <trkpt lat="60.15815186762996" lon="24.65"><time>2026-07-10T09:07:25.000Z</time></trkpt>
      <trkpt lat="60.158089414826925" lon="24.65"><time>2026-07-10T09:07:26.000Z</time></trkpt>
      <trkpt lat="60.15802696202389" lon="24.65"><time>2026-07-10T09:07:27.000Z</time></trkpt>
      <trkpt lat="60.157964509220854" lon="24.65"><time>2026-07-10T09:07:28.000Z</time></trkpt>
      <trkpt lat="60.15790205641782" lon="24.65"><time>2026-07-10T09:07:29.000Z</time></trkpt>
      <trkpt lat="60.15783960361478" lon="24.65"><time>2026-07-10T09:07:30.000Z</time></trkpt>
      <trkpt lat="60.15777715081175" lon="24.65"><time>2026-07-10T09:07:31.000Z</time></trkpt>
      <trkpt lat="60.15771469800871" lon="24.65"><time>2026-07-10T09:07:32.000Z</time></trkpt>
      <trkpt lat="60.157652245205675" lon="24.65"><time>2026-07-10T09:07:33.000Z</time></trkpt>
      <trkpt lat="60.15758979240263" lon="24.65"><time>2026-07-10T09:07:34.000Z</time></trkpt>
      <trkpt lat="60.157527339599596" lon="24.65"><time>2026-07-10T09:07:35.000Z</time></trkpt>
      <trkpt lat="60.15746488679656" lon="24.65"><time>2026-07-10T09:07:36.000Z</time></trkpt>
      <trkpt lat="60.157402433993525" lon="24.65"><time>2026-07-10T09:07:37.000Z</time></trkpt>
      <trkpt lat="60.15733998119049" lon="24.65"><time>2026-07-10T09:07:38.000Z</time></trkpt>
      <trkpt lat="60.15727752838745" lon="24.65"><time>2026-07-10T09:07:39.000Z</time></trkpt>
      <trkpt lat="60.15721507558442" lon="24.65"><time>2026-07-10T09:07:40.000Z</time></trkpt>
      <trkpt lat="60.15715262278138" lon="24.65"><time>2026-07-10T09:07:41.000Z</time></trkpt>
      <trkpt lat="60.157090169978346" lon="24.65"><time>2026-07-10T09:07:42.000Z</time></trkpt>
      <trkpt lat="60.15702771717531" lon="24.65"><time>2026-07-10T09:07:43.000Z</time></trkpt>
      <trkpt lat="60.15696526437227" lon="24.65"><time>2026-07-10T09:07:44.000Z</time></trkpt>
      <trkpt lat="60.15690281156923" lon="24.65"><time>2026-07-10T09:07:45.000Z</time></trkpt>
      <trkpt lat="60.156840358766196" lon="24.65"><time>2026-07-10T09:07:46.000Z</time></trkpt>
      <trkpt lat="60.15677790596316" lon="24.65"><time>2026-07-10T09:07:47.000Z</time></trkpt>
      <trkpt lat="60.156715453160125" lon="24.65"><time>2026-07-10T09:07:48.000Z</time></trkpt>
      <trkpt lat="60.15665300035709" lon="24.65"><time>2026-07-10T09:07:49.000Z</time></trkpt>
      <trkpt lat="60.15659054755405" lon="24.65"><time>2026-07-10T09:07:50.000Z</time></trkpt>
      <trkpt lat="60.15652809475102" lon="24.65"><time>2026-07-10T09:07:51.000Z</time></trkpt>
      <trkpt lat="60.15646564194798" lon="24.65"><time>2026-07-10T09:07:52.000Z</time></trkpt>
      <trkpt lat="60.156403189144946" lon="24.65"><time>2026-07-10T09:07:53.000Z</time></trkpt>
      <trkpt lat="60.1563407363419" lon="24.65"><time>2026-07-10T09:07:54.000Z</time></trkpt>
      <trkpt lat="60.15627828353887" lon="24.65"><time>2026-07-10T09:07:55.000Z</time></trkpt>
      <trkpt lat="60.15621583073583" lon="24.65"><time>2026-07-10T09:07:56.000Z</time></trkpt>
      <trkpt lat="60.156153377932796" lon="24.65"><time>2026-07-10T09:07:57.000Z</time></trkpt>
      <trkpt lat="60.15609092512976" lon="24.65"><time>2026-07-10T09:07:58.000Z</time></trkpt>
      <trkpt lat="60.156028472326724" lon="24.65"><time>2026-07-10T09:07:59.000Z</time></trkpt>
      <trkpt lat="60.15596601952369" lon="24.65"><time>2026-07-10T09:08:00.000Z</time></trkpt>
      <trkpt lat="60.15590356672065" lon="24.65"><time>2026-07-10T09:08:01.000Z</time></trkpt>
      <trkpt lat="60.15584111391762" lon="24.65"><time>2026-07-10T09:08:02.000Z</time></trkpt>
      <trkpt lat="60.15577866111458" lon="24.65"><time>2026-07-10T09:08:03.000Z</time></trkpt>
      <trkpt lat="60.155716208311546" lon="24.65"><time>2026-07-10T09:08:04.000Z</time></trkpt>
      <trkpt lat="60.1556537555085" lon="24.65"><time>2026-07-10T09:08:05.000Z</time></trkpt>
      <trkpt lat="60.15559130270547" lon="24.65"><time>2026-07-10T09:08:06.000Z</time></trkpt>
      <trkpt lat="60.15552884990243" lon="24.65"><time>2026-07-10T09:08:07.000Z</time></trkpt>
      <trkpt lat="60.155466397099396" lon="24.65"><time>2026-07-10T09:08:08.000Z</time></trkpt>
      <trkpt lat="60.15540394429636" lon="24.65"><time>2026-07-10T09:08:09.000Z</time></trkpt>
      <trkpt lat="60.155341491493324" lon="24.65"><time>2026-07-10T09:08:10.000Z</time></trkpt>
      <trkpt lat="60.15527903869029" lon="24.65"><time>2026-07-10T09:08:11.000Z</time></trkpt>
      <trkpt lat="60.15521658588725" lon="24.65"><time>2026-07-10T09:08:12.000Z</time></trkpt>
      <trkpt lat="60.15515413308422" lon="24.65"><time>2026-07-10T09:08:13.000Z</time></trkpt>
      <trkpt lat="60.15509168028118" lon="24.65"><time>2026-07-10T09:08:14.000Z</time></trkpt>
      <trkpt lat="60.15502922747814" lon="24.65"><time>2026-07-10T09:08:15.000Z</time></trkpt>
      <trkpt lat="60.1549667746751" lon="24.65"><time>2026-07-10T09:08:16.000Z</time></trkpt>
      <trkpt lat="60.15490432187207" lon="24.65"><time>2026-07-10T09:08:17.000Z</time></trkpt>
      <trkpt lat="60.15484186906903" lon="24.65"><time>2026-07-10T09:08:18.000Z</time></trkpt>
      <trkpt lat="60.154779416265995" lon="24.65"><time>2026-07-10T09:08:19.000Z</time></trkpt>
      <trkpt lat="60.15471696346296" lon="24.65"><time>2026-07-10T09:08:20.000Z</time></trkpt>
      <trkpt lat="60.154654510659924" lon="24.65"><time>2026-07-10T09:08:21.000Z</time></trkpt>
      <trkpt lat="60.15459205785689" lon="24.65"><time>2026-07-10T09:08:22.000Z</time></trkpt>
      <trkpt lat="60.15452960505385" lon="24.65"><time>2026-07-10T09:08:23.000Z</time></trkpt>
      <trkpt lat="60.15446715225082" lon="24.65"><time>2026-07-10T09:08:24.000Z</time></trkpt>
      <trkpt lat="60.15440469944778" lon="24.65"><time>2026-07-10T09:08:25.000Z</time></trkpt>
      <trkpt lat="60.15434224664474" lon="24.65"><time>2026-07-10T09:08:26.000Z</time></trkpt>
      <trkpt lat="60.1542797938417" lon="24.65"><time>2026-07-10T09:08:27.000Z</time></trkpt>
      <trkpt lat="60.15421734103867" lon="24.65"><time>2026-07-10T09:08:28.000Z</time></trkpt>
      <trkpt lat="60.15415488823563" lon="24.65"><time>2026-07-10T09:08:29.000Z</time></trkpt>
      <trkpt lat="60.154092435432595" lon="24.65"><time>2026-07-10T09:08:30.000Z</time></trkpt>
      <trkpt lat="60.15402998262956" lon="24.65"><time>2026-07-10T09:08:31.000Z</time></trkpt>
      <trkpt lat="60.153967529826524" lon="24.65"><time>2026-07-10T09:08:32.000Z</time></trkpt>
      <trkpt lat="60.15390507702349" lon="24.65"><time>2026-07-10T09:08:33.000Z</time></trkpt>
      <trkpt lat="60.15384262422045" lon="24.65"><time>2026-07-10T09:08:34.000Z</time></trkpt>
      <trkpt lat="60.15378017141742" lon="24.65"><time>2026-07-10T09:08:35.000Z</time></trkpt>
      <trkpt lat="60.153717718614374" lon="24.65"><time>2026-07-10T09:08:36.000Z</time></trkpt>
      <trkpt lat="60.15365526581134" lon="24.65"><time>2026-07-10T09:08:37.000Z</time></trkpt>
      <trkpt lat="60.1535928130083" lon="24.65"><time>2026-07-10T09:08:38.000Z</time></trkpt>
      <trkpt lat="60.15353036020527" lon="24.65"><time>2026-07-10T09:08:39.000Z</time></trkpt>
      <trkpt lat="60.15346790740223" lon="24.65"><time>2026-07-10T09:08:40.000Z</time></trkpt>
      <trkpt lat="60.153405454599195" lon="24.65"><time>2026-07-10T09:08:41.000Z</time></trkpt>
      <trkpt lat="60.15334300179616" lon="24.65"><time>2026-07-10T09:08:42.000Z</time></trkpt>
      <trkpt lat="60.15328054899312" lon="24.65"><time>2026-07-10T09:08:43.000Z</time></trkpt>
      <trkpt lat="60.15321809619009" lon="24.65"><time>2026-07-10T09:08:44.000Z</time></trkpt>
      <trkpt lat="60.15315564338705" lon="24.65"><time>2026-07-10T09:08:45.000Z</time></trkpt>
      <trkpt lat="60.15309319058401" lon="24.65"><time>2026-07-10T09:08:46.000Z</time></trkpt>
      <trkpt lat="60.15303073778097" lon="24.65"><time>2026-07-10T09:08:47.000Z</time></trkpt>
      <trkpt lat="60.15296828497794" lon="24.65"><time>2026-07-10T09:08:48.000Z</time></trkpt>
      <trkpt lat="60.1529058321749" lon="24.65"><time>2026-07-10T09:08:49.000Z</time></trkpt>
      <trkpt lat="60.152843379371866" lon="24.65"><time>2026-07-10T09:08:50.000Z</time></trkpt>
      <trkpt lat="60.15278092656883" lon="24.65"><time>2026-07-10T09:08:51.000Z</time></trkpt>
      <trkpt lat="60.152718473765795" lon="24.65"><time>2026-07-10T09:08:52.000Z</time></trkpt>
      <trkpt lat="60.15265602096276" lon="24.65"><time>2026-07-10T09:08:53.000Z</time></trkpt>
      <trkpt lat="60.15259356815972" lon="24.65"><time>2026-07-10T09:08:54.000Z</time></trkpt>
      <trkpt lat="60.15253111535669" lon="24.65"><time>2026-07-10T09:08:55.000Z</time></trkpt>
      <trkpt lat="60.15246866255365" lon="24.65"><time>2026-07-10T09:08:56.000Z</time></trkpt>
      <trkpt lat="60.15240620975061" lon="24.65"><time>2026-07-10T09:08:57.000Z</time></trkpt>
      <trkpt lat="60.15234375694757" lon="24.65"><time>2026-07-10T09:08:58.000Z</time></trkpt>
      <trkpt lat="60.15228130414454" lon="24.65"><time>2026-07-10T09:08:59.000Z</time></trkpt>
      <trkpt lat="60.1522188513415" lon="24.65"><time>2026-07-10T09:09:00.000Z</time></trkpt>
      <trkpt lat="60.152156398538466" lon="24.65"><time>2026-07-10T09:09:01.000Z</time></trkpt>
      <trkpt lat="60.15209394573543" lon="24.65"><time>2026-07-10T09:09:02.000Z</time></trkpt>
      <trkpt lat="60.152031492932394" lon="24.65"><time>2026-07-10T09:09:03.000Z</time></trkpt>
      <trkpt lat="60.15196904012936" lon="24.65"><time>2026-07-10T09:09:04.000Z</time></trkpt>
      <trkpt lat="60.15190658732632" lon="24.65"><time>2026-07-10T09:09:05.000Z</time></trkpt>
      <trkpt lat="60.15184413452329" lon="24.65"><time>2026-07-10T09:09:06.000Z</time></trkpt>
      <trkpt lat="60.151781681720244" lon="24.65"><time>2026-07-10T09:09:07.000Z</time></trkpt>
      <trkpt lat="60.15171922891721" lon="24.65"><time>2026-07-10T09:09:08.000Z</time></trkpt>
      <trkpt lat="60.15165677611417" lon="24.65"><time>2026-07-10T09:09:09.000Z</time></trkpt>
      <trkpt lat="60.15159432331114" lon="24.65"><time>2026-07-10T09:09:10.000Z</time></trkpt>
      <trkpt lat="60.1515318705081" lon="24.65"><time>2026-07-10T09:09:11.000Z</time></trkpt>
      <trkpt lat="60.151469417705066" lon="24.65"><time>2026-07-10T09:09:12.000Z</time></trkpt>
      <trkpt lat="60.15140696490203" lon="24.65"><time>2026-07-10T09:09:13.000Z</time></trkpt>
      <trkpt lat="60.151344512098994" lon="24.65"><time>2026-07-10T09:09:14.000Z</time></trkpt>
      <trkpt lat="60.15128205929596" lon="24.65"><time>2026-07-10T09:09:15.000Z</time></trkpt>
      <trkpt lat="60.15121960649292" lon="24.65"><time>2026-07-10T09:09:16.000Z</time></trkpt>
      <trkpt lat="60.15115715368988" lon="24.65"><time>2026-07-10T09:09:17.000Z</time></trkpt>
      <trkpt lat="60.151094700886844" lon="24.65"><time>2026-07-10T09:09:18.000Z</time></trkpt>
      <trkpt lat="60.15103224808381" lon="24.65"><time>2026-07-10T09:09:19.000Z</time></trkpt>
      <trkpt lat="60.15096979528077" lon="24.65"><time>2026-07-10T09:09:20.000Z</time></trkpt>
      <trkpt lat="60.15090734247774" lon="24.65"><time>2026-07-10T09:09:21.000Z</time></trkpt>
      <trkpt lat="60.1508448896747" lon="24.65"><time>2026-07-10T09:09:22.000Z</time></trkpt>
      <trkpt lat="60.150782436871665" lon="24.65"><time>2026-07-10T09:09:23.000Z</time></trkpt>
      <trkpt lat="60.15071998406863" lon="24.65"><time>2026-07-10T09:09:24.000Z</time></trkpt>
      <trkpt lat="60.150657531265594" lon="24.65"><time>2026-07-10T09:09:25.000Z</time></trkpt>
      <trkpt lat="60.15059507846256" lon="24.65"><time>2026-07-10T09:09:26.000Z</time></trkpt>
      <trkpt lat="60.15053262565952" lon="24.65"><time>2026-07-10T09:09:27.000Z</time></trkpt>
      <trkpt lat="60.15047017285648" lon="24.65"><time>2026-07-10T09:09:28.000Z</time></trkpt>
      <trkpt lat="60.150407720053444" lon="24.65"><time>2026-07-10T09:09:29.000Z</time></trkpt>
      <trkpt lat="60.15034526725041" lon="24.65"><time>2026-07-10T09:09:30.000Z</time></trkpt>
      <trkpt lat="60.15028281444737" lon="24.65"><time>2026-07-10T09:09:31.000Z</time></trkpt>
      <trkpt lat="60.15022036164434" lon="24.65"><time>2026-07-10T09:09:32.000Z</time></trkpt>
      <trkpt lat="60.1501579088413" lon="24.65"><time>2026-07-10T09:09:33.000Z</time></trkpt>
      <trkpt lat="60.150095456038265" lon="24.65"><time>2026-07-10T09:09:34.000Z</time></trkpt>
      <trkpt lat="60.15003300323523" lon="24.65"><time>2026-07-10T09:09:35.000Z</time></trkpt>
      <trkpt lat="60.15" lon="24.65"><time>2026-07-10T09:09:35.528Z</time></trkpt>
    </trkseg>
  </trk>
</gpx>
