<?xml version="1.0" encoding="UTF-8"?>
<gpx version="1.1" creator="WindRide replay" xmlns="http://www.topografix.com/GPX/1/1" xmlns:xsi="http://www.w3.org/2001/XMLSchema-instance" xsi:schemaLocation="http://www.topografix.com/GPX/1/1 http://www.topografix.com/GPX/1/1/gpx.xsd">
  <metadata>
    <name>WindRide off-route trace</name>
  </metadata>
  <trk>
    <name>WindRide off-route trace</name>
    <trkseg>
      <trkpt lat="60.15" lon="24.65"><time>2026-07-10T09:00:00.000Z</time></trkpt>
      <trkpt lat="60.15" lon="24.650125475001655"><time>2026-07-10T09:00:01.000Z</time></trkpt>
      <trkpt lat="60.15" lon="24.65025095000331"><time>2026-07-10T09:00:02.000Z</time></trkpt>
      <trkpt lat="60.15" lon="24.65037642500497"><time>2026-07-10T09:00:03.000Z</time></trkpt>
      <trkpt lat="60.15" lon="24.650501900006628"><time>2026-07-10T09:00:04.000Z</time></trkpt>
      <trkpt lat="60.15" lon="24.650627375008284"><time>2026-07-10T09:00:05.000Z</time></trkpt>
      <trkpt lat="60.15" lon="24.65075285000994"><time>2026-07-10T09:00:06.000Z</time></trkpt>
      <trkpt lat="60.15" lon="24.6508783250116"><time>2026-07-10T09:00:07.000Z</time></trkpt>
      <trkpt lat="60.15" lon="24.651003800013257"><time>2026-07-10T09:00:08.000Z</time></trkpt>
      <trkpt lat="60.15" lon="24.651129275014913"><time>2026-07-10T09:00:09.000Z</time></trkpt>
      <trkpt lat="60.15" lon="24.65125475001657"><time>2026-07-10T09:00:10.000Z</time></trkpt>
      <trkpt lat="60.15" lon="24.65138022501823"><time>2026-07-10T09:00:11.000Z</time></trkpt>
      <trkpt lat="60.15" lon="24.651505700019886"><time>2026-07-10T09:00:12.000Z</time></trkpt>
      <trkpt lat="60.15" lon="24.651631175021542"><time>2026-07-10T09:00:13.000Z</time></trkpt>
      <trkpt lat="60.15" lon="24.6517566500232"><time>2026-07-10T09:00:14.000Z</time></trkpt>
      <trkpt lat="60.15" lon="24.65188212502486"><time>2026-07-10T09:00:15.000Z</time></trkpt>
      <trkpt lat="60.15" lon="24.652007600026515"><time>2026-07-10T09:00:16.000Z</time></trkpt>
      <trkpt lat="60.15" lon="24.65213307502817"><time>2026-07-10T09:00:17.000Z</time></trkpt>
      <trkpt lat="60.15" lon="24.652258550029828"><time>2026-07-10T09:00:18.000Z</time></trkpt>
      <trkpt lat="60.15" lon="24.652384025031488"><time>2026-07-10T09:00:19.000Z</time></trkpt>
      <trkpt lat="60.15" lon="24.652509500033144"><time>2026-07-10T09:00:20.000Z</time></trkpt>
      <trkpt lat="60.15" lon="24.6526349750348"><time>2026-07-10T09:00:21.000Z</time></trkpt>
      <trkpt lat="60.15" lon="24.652760450036457"><time>2026-07-10T09:00:22.000Z</time></trkpt>
      <trkpt lat="60.15" lon="24.652885925038117"><time>2026-07-10T09:00:23.000Z</time></trkpt>
      <trkpt lat="60.15" lon="24.653011400039773"><time>2026-07-10T09:00:24.000Z</time></trkpt>
      <trkpt lat="60.15" lon="24.65313687504143"><time>2026-07-10T09:00:25.000Z</time></trkpt>
      <trkpt lat="60.15" lon="24.653262350043086"><time>2026-07-10T09:00:26.000Z</time></trkpt>
      <trkpt lat="60.15" lon="24.653387825044742"><time>2026-07-10T09:00:27.000Z</time></trkpt>
      <trkpt lat="60.15" lon="24.653513300046402"><time>2026-07-10T09:00:28.000Z</time></trkpt>
      <trkpt lat="60.15" lon="24.65363877504806"><time>2026-07-10T09:00:29.000Z</time></trkpt>
      <trkpt lat="60.15" lon="24.653764250049715"><time>2026-07-10T09:00:30.000Z</time></trkpt>
      <trkpt lat="60.15" lon="24.65388972505137"><time>2026-07-10T09:00:31.000Z</time></trkpt>
      <trkpt lat="60.15" lon="24.65401520005303"><time>2026-07-10T09:00:32.000Z</time></trkpt>
      <trkpt lat="60.15" lon="24.654140675054688"><time>2026-07-10T09:00:33.000Z</time></trkpt>
      <trkpt lat="60.15" lon="24.654266150056344"><time>2026-07-10T09:00:34.000Z</time></trkpt>
      <trkpt lat="60.15" lon="24.654391625058"><time>2026-07-10T09:00:35.000Z</time></trkpt>
      <trkpt lat="60.15" lon="24.65451710005966"><time>2026-07-10T09:00:36.000Z</time></trkpt>
      <trkpt lat="60.15" lon="24.654642575061317"><time>2026-07-10T09:00:37.000Z</time></trkpt>
      <trkpt lat="60.15" lon="24.654768050062973"><time>2026-07-10T09:00:38.000Z</time></trkpt>
      <trkpt lat="60.15" lon="24.65489352506463"><time>2026-07-10T09:00:39.000Z</time></trkpt>
      <trkpt lat="60.15" lon="24.65501900006629"><time>2026-07-10T09:00:40.000Z</time></trkpt>
      <trkpt lat="60.15" lon="24.655144475067946"><time>2026-07-10T09:00:41.000Z</time></trkpt>
      <trkpt lat="60.15" lon="24.655269950069602"><time>2026-07-10T09:00:42.000Z</time></trkpt>
      <trkpt lat="60.15" lon="24.65539542507126"><time>2026-07-10T09:00:43.000Z</time></trkpt>
      <trkpt lat="60.15" lon="24.65552090007292"><time>2026-07-10T09:00:44.000Z</time></trkpt>
      <trkpt lat="60.15" lon="24.655646375074575"><time>2026-07-10T09:00:45.000Z</time></trkpt>
      <trkpt lat="60.15" lon="24.65577185007623"><time>2026-07-10T09:00:46.000Z</time></trkpt>
      <trkpt lat="60.15" lon="24.655897325077888"><time>2026-07-10T09:00:47.000Z</time></trkpt>
      <trkpt lat="60.15" lon="24.656022800079548"><time>2026-07-10T09:00:48.000Z</time></trkpt>
      <trkpt lat="60.15" lon="24.656148275081204"><time>2026-07-10T09:00:49.000Z</time></trkpt>
      <trkpt lat="60.15" lon="24.65627375008286"><time>2026-07-10T09:00:50.000Z</time></trkpt>
      <trkpt lat="60.15" lon="24.656399225084517"><time>2026-07-10T09:00:51.000Z</time></trkpt>
      <trkpt lat="60.15" lon="24.656524700086173"><time>2026-07-10T09:00:52.000Z</time></trkpt>
      <trkpt lat="60.15" lon="24.656650175087833"><time>2026-07-10T09:00:53.000Z</time></trkpt>
      <trkpt lat="60.15" lon="24.65677565008949"><time>2026-07-10T09:00:54.000Z</time></trkpt>
      <trkpt lat="60.15" lon="24.656901125091146"><time>2026-07-10T09:00:55.000Z</time></trkpt>
      <trkpt lat="60.15" lon="24.657026600092802"><time>2026-07-10T09:00:56.000Z</time></trkpt>
      <trkpt lat="60.15" lon="24.657152075094462"><time>2026-07-10T09:00:57.000Z</time></trkpt>
      <trkpt lat="60.15" lon="24.65727755009612"><time>2026-07-10T09:00:58.000Z</time></trkpt>
      <trkpt lat="60.15" lon="24.657403025097775"><time>2026-07-10T09:00:59.000Z</time></trkpt>
      <trkpt lat="60.15" lon="24.65752850009943"><time>2026-07-10T09:01:00.000Z</time></trkpt>
      <trkpt lat="60.15" lon="24.65765397510109"><time>2026-07-10T09:01:01.000Z</time></trkpt>
      <trkpt lat="60.15" lon="24.657779450102748"><time>2026-07-10T09:01:02.000Z</time></trkpt>
      <trkpt lat="60.15" lon="24.657904925104404"><time>2026-07-10T09:01:03.000Z</time></trkpt>
      <trkpt lat="60.15" lon="24.65803040010606"><time>2026-07-10T09:01:04.000Z</time></trkpt>
      <trkpt lat="60.15" lon="24.65815587510772"><time>2026-07-10T09:01:05.000Z</time></trkpt>
      <trkpt lat="60.15" lon="24.658281350109377"><time>2026-07-10T09:01:06.000Z</time></trkpt>
      <trkpt lat="60.15" lon="24.658406825111033"><time>2026-07-10T09:01:07.000Z</time></trkpt>
      <trkpt lat="60.15" lon="24.65853230011269"><time>2026-07-10T09:01:08.000Z</time></trkpt>
      <trkpt lat="60.15" lon="24.65865777511435"><time>2026-07-10T09:01:09.000Z</time></trkpt>
      <trkpt lat="60.15" lon="24.658783250116006"><time>2026-07-10T09:01:10.000Z</time></trkpt>
      <trkpt lat="60.15" lon="24.658908725117662"><time>2026-07-10T09:01:11.000Z</time></trkpt>
      <trkpt lat="60.15" lon="24.65903420011932"><time>2026-07-10T09:01:12.000Z</time></trkpt>
      <trkpt lat="60.15" lon="24.65915967512098"><time>2026-07-10T09:01:13.000Z</time></trkpt>
      <trkpt lat="60.15" lon="24.659285150122635"><time>2026-07-10T09:01:14.000Z</time></trkpt>
      <trkpt lat="60.15" lon="24.65941062512429"><time>2026-07-10T09:01:15.000Z</time></trkpt>
      <trkpt lat="60.15" lon="24.659536100125948"><time>2026-07-10T09:01:16.000Z</time></trkpt>
      <trkpt lat="60.15" lon="24.659661575127604"><time>2026-07-10T09:01:17.000Z</time></trkpt>
      <trkpt lat="60.15" lon="24.659787050129264"><time>2026-07-10T09:01:18.000Z</time></trkpt>
      <trkpt lat="60.15" lon="24.65991252513092"><time>2026-07-10T09:01:19.000Z</time></trkpt>
      <trkpt lat="60.15" lon="24.660038000132577"><time>2026-07-10T09:01:20.000Z</time></trkpt>
      <trkpt lat="60.15" lon="24.660163475134233"><time>2026-07-10T09:01:21.000Z</time></trkpt>
      <trkpt lat="60.15" lon="24.660288950135893"><time>2026-07-10T09:01:22.000Z</time></trkpt>
      <trkpt lat="60.15" lon="24.66041442513755"><time>2026-07-10T09:01:23.000Z</time></trkpt>
      <trkpt lat="60.15" lon="24.660539900139206"><time>2026-07-10T09:01:24.000Z</time></trkpt>
      <trkpt lat="60.15" lon="24.660665375140862"><time>2026-07-10T09:01:25.000Z</time></trkpt>
      <trkpt lat="60.15" lon="24.660790850142522"><time>2026-07-10T09:01:26.000Z</time></trkpt>
      <trkpt lat="60.15" lon="24.66091632514418"><time>2026-07-10T09:01:27.000Z</time></trkpt>
      <trkpt lat="60.15" lon="24.661041800145835"><time>2026-07-10T09:01:28.000Z</time></trkpt>
      <trkpt lat="60.15" lon="24.66116727514749"><time>2026-07-10T09:01:29.000Z</time></trkpt>
      <trkpt lat="60.15" lon="24.66129275014915"><time>2026-07-10T09:01:30.000Z</time></trkpt>
      <trkpt lat="60.15" lon="24.661418225150808"><time>2026-07-10T09:01:31.000Z</time></trkpt>
      <trkpt lat="60.15" lon="24.661543700152464"><time>2026-07-10T09:01:32.000Z</time></trkpt>
      <trkpt lat="60.15" lon="24.66166917515412"><time>2026-07-10T09:01:33.000Z</time></trkpt>
      <trkpt lat="60.15" lon="24.66179465015578"><time>2026-07-10T09:01:34.000Z</time></trkpt>
      <trkpt lat="60.15" lon="24.661920125157437"><time>2026-07-10T09:01:35.000Z</time></trkpt>
      <trkpt lat="60.1500226966146" lon="24.662"><time>2026-07-10T09:01:36.000Z</time></trkpt>
      <trkpt lat="60.150085149417635" lon="24.662"><time>2026-07-10T09:01:37.000Z</time></trkpt>
      <trkpt lat="60.15014760222067" lon="24.662"><time>2026-07-10T09:01:38.000Z</time></trkpt>
      <trkpt lat="60.150210055023706" lon="24.662"><time>2026-07-10T09:01:39.000Z</time></trkpt>
      <trkpt lat="60.15027250782674" lon="24.662"><time>2026-07-10T09:01:40.000Z</time></trkpt>
      <trkpt lat="60.15033496062978" lon="24.662"><time>2026-07-10T09:01:41.000Z</time></trkpt>
      <trkpt lat="60.15039741343281" lon="24.662"><time>2026-07-10T09:01:42.000Z</time></trkpt>
      <trkpt lat="60.15045986623585" lon="24.662"><time>2026-07-10T09:01:43.000Z</time></trkpt>
      <trkpt lat="60.15052231903889" lon="24.662"><time>2026-07-10T09:01:44.000Z</time></trkpt>
      <trkpt lat="60.15058477184193" lon="24.662"><time>2026-07-10T09:01:45.000Z</time></trkpt>
      <trkpt lat="60.15064722464496" lon="24.662"><time>2026-07-10T09:01:46.000Z</time></trkpt>
      <trkpt lat="60.150709677448" lon="24.662"><time>2026-07-10T09:01:47.000Z</time></trkpt>
      <trkpt lat="60.150772130251035" lon="24.662"><time>2026-07-10T09:01:48.000Z</time></trkpt>
      <trkpt lat="60.15083458305407" lon="24.662"><time>2026-07-10T09:01:49.000Z</time></trkpt>
      <trkpt lat="60.150897035857106" lon="24.662"><time>2026-07-10T09:01:50.000Z</time></trkpt>
      <trkpt lat="60.15095948866014" lon="24.662"><time>2026-07-10T09:01:51.000Z</time></trkpt>
      <trkpt lat="60.15102194146318" lon="24.662"><time>2026-07-10T09:01:52.000Z</time></trkpt>
      <trkpt lat="60.15108439426621" lon="24.662"><time>2026-07-10T09:01:53.000Z</time></trkpt>
      <trkpt lat="60.15114684706925" lon="24.662"><time>2026-07-10T09:01:54.000Z</time></trkpt>
      <trkpt lat="60.15120929987229" lon="24.662"><time>2026-07-10T09:01:55.000Z</time></trkpt>
      <trkpt lat="60.15127175267533" lon="24.662"><time>2026-07-10T09:01:56.000Z</time></trkpt>
      <trkpt lat="60.15133420547836" lon="24.662"><time>2026-07-10T09:01:57.000Z</time></trkpt>
      <trkpt lat="60.1513966582814" lon="24.662"><time>2026-07-10T09:01:58.000Z</time></trkpt>
      <trkpt lat="60.151459111084435" lon="24.662"><time>2026-07-10T09:01:59.000Z</time></trkpt>
      <trkpt lat="60.15152156388747" lon="24.662"><time>2026-07-10T09:02:00.000Z</time></trkpt>
      <trkpt lat="60.15158401669051" lon="24.662"><time>2026-07-10T09:02:01.000Z</time></trkpt>
      <trkpt lat="60.15164646949354" lon="24.662"><time>2026-07-10T09:02:02.000Z</time></trkpt>
      <trkpt lat="60.15170892229658" lon="24.662"><time>2026-07-10T09:02:03.000Z</time></trkpt>
      <trkpt lat="60.151771375099614" lon="24.662"><time>2026-07-10T09:02:04.000Z</time></trkpt>
      <trkpt lat="60.15183382790266" lon="24.662"><time>2026-07-10T09:02:05.000Z</time></trkpt>
      <trkpt lat="60.15189628070569" lon="24.662"><time>2026-07-10T09:02:06.000Z</time></trkpt>
      <trkpt lat="60.15195873350873" lon="24.662"><time>2026-07-10T09:02:07.000Z</time></trkpt>
      <trkpt lat="60.152021186311764" lon="24.662"><time>2026-07-10T09:02:08.000Z</time></trkpt>
      <trkpt lat="60.1520836391148" lon="24.662"><time>2026-07-10T09:02:09.000Z</time></trkpt>
      <trkpt lat="60.152146091917835" lon="24.662"><time>2026-07-10T09:02:10.000Z</time></trkpt>
      <trkpt lat="60.15220854472087" lon="24.662"><time>2026-07-10T09:02:11.000Z</time></trkpt>
      <trkpt lat="60.15227099752391" lon="24.662"><time>2026-07-10T09:02:12.000Z</time></trkpt>
      <trkpt lat="60.15233345032694" lon="24.662"><time>2026-07-10T09:02:13.000Z</time></trkpt>
      <trkpt lat="60.15239590312998" lon="24.662"><time>2026-07-10T09:02:14.000Z</time></trkpt>
      <trkpt lat="60.15245835593302" lon="24.662"><time>2026-07-10T09:02:15.000Z</time></trkpt>
      <trkpt lat="60.15252080873606" lon="24.662"><time>2026-07-10T09:02:16.000Z</time></trkpt>
      <trkpt lat="60.15258326153909" lon="24.662"><time>2026-07-10T09:02:17.000Z</time></trkpt>
      <trkpt lat="60.15264571434213" lon="24.662"><time>2026-07-10T09:02:18.000Z</time></trkpt>
      <trkpt lat="60.152708167145164" lon="24.662"><time>2026-07-10T09:02:19.000Z</time></trkpt>
      <trkpt lat="60.1527706199482" lon="24.662"><time>2026-07-10T09:02:20.000Z</time></trkpt>
      <trkpt lat="60.152833072751235" lon="24.662"><time>2026-07-10T09:02:21.000Z</time></trkpt>
      <trkpt lat="60.15289552555427" lon="24.662"><time>2026-07-10T09:02:22.000Z</time></trkpt>
      <trkpt lat="60.15295797835731" lon="24.662"><time>2026-07-10T09:02:23.000Z</time></trkpt>
      <trkpt lat="60.15302043116034" lon="24.662"><time>2026-07-10T09:02:24.000Z</time></trkpt>
      <trkpt lat="60.15308288396338" lon="24.662"><time>2026-07-10T09:02:25.000Z</time></trkpt>
      <trkpt lat="60.15314533676642" lon="24.662"><time>2026-07-10T09:02:26.000Z</time></trkpt>
      <trkpt lat="60.15320778956946" lon="24.662"><time>2026-07-10T09:02:27.000Z</time></trkpt>
      <trkpt lat="60.15327024237249" lon="24.662"><time>2026-07-10T09:02:28.000Z</time></trkpt>
      <trkpt lat="60.15333269517553" lon="24.662"><time>2026-07-10T09:02:29.000Z</time></trkpt>
      <trkpt lat="60.153395147978564" lon="24.662"><time>2026-07-10T09:02:30.000Z</time></trkpt>
      <trkpt lat="60.1534576007816" lon="24.662"><time>2026-07-10T09:02:31.000Z</time></trkpt>
      <trkpt lat="60.153520053584636" lon="24.662"><time>2026-07-10T09:02:32.000Z</time></trkpt>
      <trkpt lat="60.15358250638767" lon="24.662"><time>2026-07-10T09:02:33.000Z</time></trkpt>
      <trkpt lat="60.15364495919071" lon="24.662"><time>2026-07-10T09:02:34.000Z</time></trkpt>
      <trkpt lat="60.15370741199374" lon="24.662"><time>2026-07-10T09:02:35.000Z</time></trkpt>
      <trkpt lat="60.153769864796786" lon="24.662"><time>2026-07-10T09:02:36.000Z</time></trkpt>
      <trkpt lat="60.15383231759982" lon="24.662"><time>2026-07-10T09:02:37.000Z</time></trkpt>
      <trkpt lat="60.15389477040286" lon="24.662"><time>2026-07-10T09:02:38.000Z</time></trkpt>
      <trkpt lat="60.15395722320589" lon="24.662"><time>2026-07-10T09:02:39.000Z</time></trkpt>
      <trkpt lat="60.15401967600893" lon="24.662"><time>2026-07-10T09:02:40.000Z</time></trkpt>
      <trkpt lat="60.154082128811964" lon="24.662"><time>2026-07-10T09:02:41.000Z</time></trkpt>
      <trkpt lat="60.154144581615" lon="24.662"><time>2026-07-10T09:02:42.000Z</time></trkpt>
      <trkpt lat="60.154207034418036" lon="24.662"><time>2026-07-10T09:02:43.000Z</time></trkpt>
      <trkpt lat="60.15426948722107" lon="24.662"><time>2026-07-10T09:02:44.000Z</time></trkpt>
      <trkpt lat="60.15433194002411" lon="24.662"><time>2026-07-10T09:02:45.000Z</time></trkpt>
      <trkpt lat="60.15439439282715" lon="24.662"><time>2026-07-10T09:02:46.000Z</time></trkpt>
      <trkpt lat="60.154456845630186" lon="24.662"><time>2026-07-10T09:02:47.000Z</time></trkpt>
      <trkpt lat="60.15451929843322" lon="24.662"><time>2026-07-10T09:02:48.000Z</time></trkpt>
      <trkpt lat="60.15458175123626" lon="24.662"><time>2026-07-10T09:02:49.000Z</time></trkpt>
      <trkpt lat="60.15464420403929" lon="24.662"><time>2026-07-10T09:02:50.000Z</time></trkpt>
      <trkpt lat="60.15470665684233" lon="24.662"><time>2026-07-10T09:02:51.000Z</time></trkpt>
      <trkpt lat="60.154769109645365" lon="24.662"><time>2026-07-10T09:02:52.000Z</time></trkpt>
      <trkpt lat="60.1548315624484" lon="24.662"><time>2026-07-10T09:02:53.000Z</time></trkpt>
      <trkpt lat="60.154894015251436" lon="24.662"><time>2026-07-10T09:02:54.000Z</time></trkpt>
      <trkpt lat="60.15495646805447" lon="24.662"><time>2026-07-10T09:02:55.000Z</time></trkpt>
      <trkpt lat="60.15501892085751" lon="24.662"><time>2026-07-10T09:02:56.000Z</time></trkpt>
      <trkpt lat="60.15508137366055" lon="24.662"><time>2026-07-10T09:02:57.000Z</time></trkpt>
      <trkpt lat="60.155143826463586" lon="24.662"><time>2026-07-10T09:02:58.000Z</time></trkpt>
      <trkpt lat="60.15520627926662" lon="24.662"><time>2026-07-10T09:02:59.000Z</time></trkpt>
      <trkpt lat="60.15526873206966" lon="24.662"><time>2026-07-10T09:03:00.000Z</time></trkpt>
      <trkpt lat="60.15533118487269" lon="24.662"><time>2026-07-10T09:03:01.000Z</time></trkpt>
      <trkpt lat="60.15539363767573" lon="24.662"><time>2026-07-10T09:03:02.000Z</time></trkpt>
      <trkpt lat="60.155456090478765" lon="24.662"><time>2026-07-10T09:03:03.000Z</time></trkpt>
      <trkpt lat="60.1555185432818" lon="24.662"><time>2026-07-10T09:03:04.000Z</time></trkpt>
      <trkpt lat="60.155580996084836" lon="24.662"><time>2026-07-10T09:03:05.000Z</time></trkpt>
      <trkpt lat="60.15564344888787" lon="24.662"><time>2026-07-10T09:03:06.000Z</time></trkpt>
      <trkpt lat="60.155705901690915" lon="24.662"><time>2026-07-10T09:03:07.000Z</time></trkpt>
      <trkpt lat="60.15576835449395" lon="24.662"><time>2026-07-10T09:03:08.000Z</time></trkpt>
      <trkpt lat="60.15583080729699" lon="24.662"><time>2026-07-10T09:03:09.000Z</time></trkpt>
      <trkpt lat="60.15589326010002" lon="24.662"><time>2026-07-10T09:03:10.000Z</time></trkpt>
      <trkpt lat="60.15595571290306" lon="24.662"><time>2026-07-10T09:03:11.000Z</time></trkpt>
      <trkpt lat="60.156" lon="24.661963496305727"><time>2026-07-10T09:03:12.000Z</time></trkpt>
      <trkpt lat="60.156" lon="24.661837998402337"><time>2026-07-10T09:03:13.000Z</time></trkpt>
      <trkpt lat="60.156" lon="24.661712500498947"><time>2026-07-10T09:03:14.000Z</time></trkpt>
      <trkpt lat="60.156" lon="24.661587002595557"><time>2026-07-10T09:03:15.000Z</time></trkpt>
      <trkpt lat="60.156" lon="24.661461504692166"><time>2026-07-10T09:03:16.000Z</time></trkpt>
      <trkpt lat="60.156" lon="24.661336006788776"><time>2026-07-10T09:03:17.000Z</time></trkpt>
      <trkpt lat="60.156" lon="24.661210508885386"><time>2026-07-10T09:03:18.000Z</time></trkpt>
      <trkpt lat="60.156" lon="24.661085010981996"><time>2026-07-10T09:03:19.000Z</time></trkpt>
      <trkpt lat="60.156" lon="24.660959513078605"><time>2026-07-10T09:03:20.000Z</time></trkpt>
      <trkpt lat="60.156" lon="24.660834015175215"><time>2026-07-10T09:03:21.000Z</time></trkpt>
      <trkpt lat="60.156" lon="24.660708517271825"><time>2026-07-10T09:03:22.000Z</time></trkpt>
      <trkpt lat="60.156" lon="24.660583019368435"><time>2026-07-10T09:03:23.000Z</time></trkpt>
      <trkpt lat="60.156" lon="24.660457521465045"><time>2026-07-10T09:03:24.000Z</time></trkpt>
      <trkpt lat="60.156" lon="24.660332023561654"><time>2026-07-10T09:03:25.000Z</time></trkpt>
      <trkpt lat="60.156" lon="24.660206525658264"><time>2026-07-10T09:03:26.000Z</time></trkpt>
      <trkpt lat="60.156" lon="24.660081027754874"><time>2026-07-10T09:03:27.000Z</time></trkpt>
      <trkpt lat="60.156" lon="24.659955529851484"><time>2026-07-10T09:03:28.000Z</time></trkpt>
      <trkpt lat="60.156" lon="24.659830031948093"><time>2026-07-10T09:03:29.000Z</time></trkpt>
      <trkpt lat="60.156" lon="24.659704534044703"><time>2026-07-10T09:03:30.000Z</time></trkpt>
      <trkpt lat="60.156" lon="24.659579036141313"><time>2026-07-10T09:03:31.000Z</time></trkpt>
      <trkpt lat="60.156" lon="24.659453538237923"><time>2026-07-10T09:03:32.000Z</time></trkpt>
      <trkpt lat="60.156" lon="24.659328040334533"><time>2026-07-10T09:03:33.000Z</time></trkpt>
      <trkpt lat="60.156" lon="24.659202542431142"><time>2026-07-10T09:03:34.000Z</time></trkpt>
      <trkpt lat="60.156" lon="24.659077044527752"><time>2026-07-10T09:03:35.000Z</time></trkpt>
      <trkpt lat="60.156" lon="24.658951546624362"><time>2026-07-10T09:03:36.000Z</time></trkpt>
      <trkpt lat="60.156" lon="24.65882604872097"><time>2026-07-10T09:03:37.000Z</time></trkpt>
      <trkpt lat="60.156" lon="24.65870055081758"><time>2026-07-10T09:03:38.000Z</time></trkpt>
      <trkpt lat="60.156" lon="24.65857505291419"><time>2026-07-10T09:03:39.000Z</time></trkpt>
      <trkpt lat="60.156" lon="24.6584495550108"><time>2026-07-10T09:03:40.000Z</time></trkpt>
      <trkpt lat="60.156" lon="24.658324057107414"><time>2026-07-10T09:03:41.000Z</time></trkpt>
      <trkpt lat="60.156" lon="24.658198559204024"><time>2026-07-10T09:03:42.000Z</time></trkpt>
      <trkpt lat="60.156" lon="24.658073061300634"><time>2026-07-10T09:03:43.000Z</time></trkpt>
      <trkpt lat="60.156" lon="24.657947563397244"><time>2026-07-10T09:03:44.000Z</time></trkpt>
      <trkpt lat="60.156" lon="24.657822065493853"><time>2026-07-10T09:03:45.000Z</time></trkpt>
      <trkpt lat="60.156" lon="24.657696567590463"><time>2026-07-10T09:03:46.000Z</time></trkpt>
      <trkpt lat="60.156" lon="24.657571069687073"><time>2026-07-10T09:03:47.000Z</time></trkpt>
      <trkpt lat="60.156" lon="24.657445571783683"><time>2026-07-10T09:03:48.000Z</time></trkpt>
      <trkpt lat="60.156" lon="24.657320073880292"><time>2026-07-10T09:03:49.000Z</time></trkpt>
      <trkpt lat="60.156" lon="24.657194575976902"><time>2026-07-10T09:03:50.000Z</time></trkpt>
      <trkpt lat="60.156" lon="24.657069078073512"><time>2026-07-10T09:03:51.000Z</time></trkpt>
      <trkpt lat="60.156" lon="24.656943580170122"><time>2026-07-10T09:03:52.000Z</time></trkpt>
      <trkpt lat="60.156" lon="24.65681808226673"><time>2026-07-10T09:03:53.000Z</time></trkpt>
      <trkpt lat="60.156" lon="24.65669258436334"><time>2026-07-10T09:03:54.000Z</time></trkpt>
      <trkpt lat="60.1560079388189" lon="24.656591739767816"><time>2026-07-10T09:03:55.000Z</time></trkpt>
      <trkpt lat="60.156064909734184" lon="24.656643160059797"><time>2026-07-10T09:03:56.000Z</time></trkpt>
      <trkpt lat="60.156121880649465" lon="24.65669458035178"><time>2026-07-10T09:03:57.000Z</time></trkpt>
      <trkpt lat="60.156178851564746" lon="24.65674600064376"><time>2026-07-10T09:03:58.000Z</time></trkpt>
      <trkpt lat="60.15623582248003" lon="24.656797420935742"><time>2026-07-10T09:03:59.000Z</time></trkpt>
      <trkpt lat="60.15629279339531" lon="24.656848841227728"><time>2026-07-10T09:04:00.000Z</time></trkpt>
      <trkpt lat="60.15634976431059" lon="24.65690026151971"><time>2026-07-10T09:04:01.000Z</time></trkpt>
      <trkpt lat="60.15640673522587" lon="24.65695168181169"><time>2026-07-10T09:04:02.000Z</time></trkpt>
      <trkpt lat="60.15646370614115" lon="24.657003102103673"><time>2026-07-10T09:04:03.000Z</time></trkpt>
      <trkpt lat="60.156520677056434" lon="24.657054522395654"><time>2026-07-10T09:04:04.000Z</time></trkpt>
      <trkpt lat="60.156577647971716" lon="24.657105942687636"><time>2026-07-10T09:04:05.000Z</time></trkpt>
      <trkpt lat="60.156634618887" lon="24.657157362979618"><time>2026-07-10T09:04:06.000Z</time></trkpt>
      <trkpt lat="60.15669158980228" lon="24.657208783271603"><time>2026-07-10T09:04:07.000Z</time></trkpt>
      <trkpt lat="60.15674856071756" lon="24.657260203563585"><time>2026-07-10T09:04:08.000Z</time></trkpt>
      <trkpt lat="60.15680553163284" lon="24.657311623855566"><time>2026-07-10T09:04:09.000Z</time></trkpt>
      <trkpt lat="60.15686250254812" lon="24.657363044147548"><time>2026-07-10T09:04:10.000Z</time></trkpt>
      <trkpt lat="60.156919473463404" lon="24.65741446443953"><time>2026-07-10T09:04:11.000Z</time></trkpt>
      <trkpt lat="60.156976444378685" lon="24.65746588473151"><time>2026-07-10T09:04:12.000Z</time></trkpt>
      <trkpt lat="60.15703341529397" lon="24.657517305023493"><time>2026-07-10T09:04:13.000Z</time></trkpt>
      <trkpt lat="60.15709038620925" lon="24.65756872531548"><time>2026-07-10T09:04:14.000Z</time></trkpt>
      <trkpt lat="60.15714735712453" lon="24.65762014560746"><time>2026-07-10T09:04:15.000Z</time></trkpt>
      <trkpt lat="60.15720432803981" lon="24.65767156589944"><time>2026-07-10T09:04:16.000Z</time></trkpt>
      <trkpt lat="60.15726129895509" lon="24.657722986191423"><time>2026-07-10T09:04:17.000Z</time></trkpt>
      <trkpt lat="60.15731826987037" lon="24.657774406483405"><time>2026-07-10T09:04:18.000Z</time></trkpt>
      <trkpt lat="60.157375240785655" lon="24.657825826775387"><time>2026-07-10T09:04:19.000Z</time></trkpt>
      <trkpt lat="60.157432211700936" lon="24.65787724706737"><time>2026-07-10T09:04:20.000Z</time></trkpt>
      <trkpt lat="60.15748918261622" lon="24.657928667359354"><time>2026-07-10T09:04:21.000Z</time></trkpt>
      <trkpt lat="60.1575461535315" lon="24.657980087651335"><time>2026-07-10T09:04:22.000Z</time></trkpt>
      <trkpt lat="60.15760312444678" lon="24.658031507943317"><time>2026-07-10T09:04:23.000Z</time></trkpt>
      <trkpt lat="60.15766009536206" lon="24.6580829282353"><time>2026-07-10T09:04:24.000Z</time></trkpt>
      <trkpt lat="60.15771706627734" lon="24.65813434852728"><time>2026-07-10T09:04:25.000Z</time></trkpt>
      <trkpt lat="60.157774037192624" lon="24.658185768819262"><time>2026-07-10T09:04:26.000Z</time></trkpt>
      <trkpt lat="60.157831008107905" lon="24.658237189111244"><time>2026-07-10T09:04:27.000Z</time></trkpt>
      <trkpt lat="60.15788797902319" lon="24.65828860940323"><time>2026-07-10T09:04:28.000Z</time></trkpt>
      <trkpt lat="60.15794494993847" lon="24.65834002969521"><time>2026-07-10T09:04:29.000Z</time></trkpt>
      <trkpt lat="60.15800192085375" lon="24.658391449987192"><time>2026-07-10T09:04:30.000Z</time></trkpt>
      <trkpt lat="60.15805889176903" lon="24.658442870279174"><time>2026-07-10T09:04:31.000Z</time></trkpt>
      <trkpt lat="60.15811586268431" lon="24.658494290571156"><time>2026-07-10T09:04:32.000Z</time></trkpt>
      <trkpt lat="60.15817283359959" lon="24.658545710863137"><time>2026-07-10T09:04:33.000Z</time></trkpt>
      <trkpt lat="60.158229804514875" lon="24.65859713115512"><time>2026-07-10T09:04:34.000Z</time></trkpt>
      <trkpt lat="60.158286775430156" lon="24.6586485514471"><time>2026-07-10T09:04:35.000Z</time></trkpt>
      <trkpt lat="60.15834374634544" lon="24.658699971739086"><time>2026-07-10T09:04:36.000Z</time></trkpt>
      <trkpt lat="60.15840071726072" lon="24.658751392031068"><time>2026-07-10T09:04:37.000Z</time></trkpt>
      <trkpt lat="60.158457688176" lon="24.65880281232305"><time>2026-07-10T09:04:38.000Z</time></trkpt>
      <trkpt lat="60.15851465909128" lon="24.65885423261503"><time>2026-07-10T09:04:39.000Z</time></trkpt>
      <trkpt lat="60.15857163000656" lon="24.658905652907013"><time>2026-07-10T09:04:40.000Z</time></trkpt>
      <trkpt lat="60.158628600921844" lon="24.658957073198994"><time>2026-07-10T09:04:41.000Z</time></trkpt>
      <trkpt lat="60.158685571837125" lon="24.659008493490976"><time>2026-07-10T09:04:42.000Z</time></trkpt>
      <trkpt lat="60.15874254275241" lon="24.65905991378296"><time>2026-07-10T09:04:43.000Z</time></trkpt>
      <trkpt lat="60.15879951366769" lon="24.659111334074943"><time>2026-07-10T09:04:44.000Z</time></trkpt>
      <trkpt lat="60.15885648458297" lon="24.659162754366925"><time>2026-07-10T09:04:45.000Z</time></trkpt>
      <trkpt lat="60.15891345549825" lon="24.659214174658906"><time>2026-07-10T09:04:46.000Z</time></trkpt>
      <trkpt lat="60.15897042641353" lon="24.659265594950888"><time>2026-07-10T09:04:47.000Z</time></trkpt>
      <trkpt lat="60.15902739732881" lon="24.65931701524287"><time>2026-07-10T09:04:48.000Z</time></trkpt>
      <trkpt lat="60.159084368244095" lon="24.65936843553485"><time>2026-07-10T09:04:49.000Z</time></trkpt>
      <trkpt lat="60.159141339159376" lon="24.659419855826837"><time>2026-07-10T09:04:50.000Z</time></trkpt>
      <trkpt lat="60.15919831007466" lon="24.65947127611882"><time>2026-07-10T09:04:51.000Z</time></trkpt>
      <trkpt lat="60.15925528098994" lon="24.6595226964108"><time>2026-07-10T09:04:52.000Z</time></trkpt>
      <trkpt lat="60.15931225190522" lon="24.65957411670278"><time>2026-07-10T09:04:53.000Z</time></trkpt>
      <trkpt lat="60.1593692228205" lon="24.659625536994763"><time>2026-07-10T09:04:54.000Z</time></trkpt>
      <trkpt lat="60.15942619373578" lon="24.659676957286745"><time>2026-07-10T09:04:55.000Z</time></trkpt>
      <trkpt lat="60.159483164651064" lon="24.659728377578727"><time>2026-07-10T09:04:56.000Z</time></trkpt>
      <trkpt lat="60.159540135566345" lon="24.659779797870712"><time>2026-07-10T09:04:57.000Z</time></trkpt>
      <trkpt lat="60.15959710648163" lon="24.659831218162694"><time>2026-07-10T09:04:58.000Z</time></trkpt>
      <trkpt lat="60.15965407739691" lon="24.659882638454675"><time>2026-07-10T09:04:59.000Z</time></trkpt>
      <trkpt lat="60.15971104831219" lon="24.659934058746657"><time>2026-07-10T09:05:00.000Z</time></trkpt>
      <trkpt lat="60.15976801922747" lon="24.65998547903864"><time>2026-07-10T09:05:01.000Z</time></trkpt>
      <trkpt lat="60.15982499014275" lon="24.66003689933062"><time>2026-07-10T09:05:02.000Z</time></trkpt>
      <trkpt lat="60.15988196105803" lon="24.660088319622602"><time>2026-07-10T09:05:03.000Z</time></trkpt>
      <trkpt lat="60.159938931973315" lon="24.660139739914587"><time>2026-07-10T09:05:04.000Z</time></trkpt>
      <trkpt lat="60.159995902888596" lon="24.66019116020657"><time>2026-07-10T09:05:05.000Z</time></trkpt>
      <trkpt lat="60.16005287380388" lon="24.66024258049855"><time>2026-07-10T09:05:06.000Z</time></trkpt>
      <trkpt lat="60.16010984471916" lon="24.660294000790532"><time>2026-07-10T09:05:07.000Z</time></trkpt>
      <trkpt lat="60.16016681563444" lon="24.660345421082514"><time>2026-07-10T09:05:08.000Z</time></trkpt>
      <trkpt lat="60.16022378654972" lon="24.660396841374496"><time>2026-07-10T09:05:09.000Z</time></trkpt>
      <trkpt lat="60.160280757465" lon="24.660448261666478"><time>2026-07-10T09:05:10.000Z</time></trkpt>
      <trkpt lat="60.160337728380284" lon="24.660499681958463"><time>2026-07-10T09:05:11.000Z</time></trkpt>
      <trkpt lat="60.160394699295566" lon="24.660551102250444"><time>2026-07-10T09:05:12.000Z</time></trkpt>
      <trkpt lat="60.16045167021085" lon="24.660602522542426"><time>2026-07-10T09:05:13.000Z</time></trkpt>
      <trkpt lat="60.16050864112613" lon="24.660653942834408"><time>2026-07-10T09:05:14.000Z</time></trkpt>
      <trkpt lat="60.16056561204141" lon="24.66070536312639"><time>2026-07-10T09:05:15.000Z</time></trkpt>
      <trkpt lat="60.16062258295669" lon="24.66075678341837"><time>2026-07-10T09:05:16.000Z</time></trkpt>
      <trkpt lat="60.16067955387197" lon="24.660808203710353"><time>2026-07-10T09:05:17.000Z</time></trkpt>
      <trkpt lat="60.160736524787254" lon="24.660859624002335"><time>2026-07-10T09:05:18.000Z</time></trkpt>
      <trkpt lat="60.160793495702535" lon="24.66091104429432"><time>2026-07-10T09:05:19.000Z</time></trkpt>
      <trkpt lat="60.160850466617816" lon="24.6609624645863"><time>2026-07-10T09:05:20.000Z</time></trkpt>
      <trkpt lat="60.1609074375331" lon="24.661013884878283"><time>2026-07-10T09:05:21.000Z</time></trkpt>
      <trkpt lat="60.16096440844838" lon="24.661065305170265"><time>2026-07-10T09:05:22.000Z</time></trkpt>
      <trkpt lat="60.16102137936366" lon="24.661116725462247"><time>2026-07-10T09:05:23.000Z</time></trkpt>
      <trkpt lat="60.16107835027894" lon="24.661168145754228"><time>2026-07-10T09:05:24.000Z</time></trkpt>
      <trkpt lat="60.16113532119422" lon="24.66121956604621"><time>2026-07-10T09:05:25.000Z</time></trkpt>
      <trkpt lat="60.161192292109504" lon="24.661270986338195"><time>2026-07-10T09:05:26.000Z</time></trkpt>
      <trkpt lat="60.161249263024786" lon="24.661322406630177"><time>2026-07-10T09:05:27.000Z</time></trkpt>
      <trkpt lat="60.16130623394007" lon="24.66137382692216"><time>2026-07-10T09:05:28.000Z</time></trkpt>
      <trkpt lat="60.16136320485535" lon="24.66142524721414"><time>2026-07-10T09:05:29.000Z</time></trkpt>
      <trkpt lat="60.16142017577063" lon="24.661476667506122"><time>2026-07-10T09:05:30.000Z</time></trkpt>
      <trkpt lat="60.16147714668591" lon="24.661528087798104"><time>2026-07-10T09:05:31.000Z</time></trkpt>
      <trkpt lat="60.16153411760119" lon="24.661579508090085"><time>2026-07-10T09:05:32.000Z</time></trkpt>
      <trkpt lat="60.161591088516474" lon="24.66163092838207"><time>2026-07-10T09:05:33.000Z</time></trkpt>
      <trkpt lat="60.161648059431755" lon="24.661682348674052"><time>2026-07-10T09:05:34.000Z</time></trkpt>
      <trkpt lat="60.161705030347036" lon="24.661733768966034"><time>2026-07-10T09:05:35.000Z</time></trkpt>
      <trkpt lat="60.16176200126232" lon="24.661785189258016"><time>2026-07-10T09:05:36.000Z</time></trkpt>
      <trkpt lat="60.1618189721776" lon="24.661836609549997"><time>2026-07-10T09:05:37.000Z</time></trkpt>
      <trkpt lat="60.16187594309288" lon="24.66188802984198"><time>2026-07-10T09:05:38.000Z</time></trkpt>
      <trkpt lat="60.16193291400816" lon="24.66193945013396"><time>2026-07-10T09:05:39.000Z</time></trkpt>
      <trkpt lat="60.16198988492344" lon="24.661990870425946"><time>2026-07-10T09:05:40.000Z</time></trkpt>
      <trkpt lat="60.162" lon="24.66189676516466"><time>2026-07-10T09:05:41.000Z</time></trkpt>
      <trkpt lat="60.162" lon="24.66177124434978"><time>2026-07-10T09:05:42.000Z</time></trkpt>
      <trkpt lat="60.162" lon="24.661645723534903"><time>2026-07-10T09:05:43.000Z</time></trkpt>
      <trkpt lat="60.162" lon="24.661520202720027"><time>2026-07-10T09:05:44.000Z</time></trkpt>
      <trkpt lat="60.162" lon="24.661394681905147"><time>2026-07-10T09:05:45.000Z</time></trkpt>
      <trkpt lat="60.162" lon="24.66126916109027"><time>2026-07-10T09:05:46.000Z</time></trkpt>
      <trkpt lat="60.162" lon="24.661143640275395"><time>2026-07-10T09:05:47.000Z</time></trkpt>
      <trkpt lat="60.162" lon="24.661018119460515"><time>2026-07-10T09:05:48.000Z</time></trkpt>
      <trkpt lat="60.162" lon="24.66089259864564"><time>2026-07-10T09:05:49.000Z</time></trkpt>
      <trkpt lat="60.162" lon="24.660767077830762"><time>2026-07-10T09:05:50.000Z</time></trkpt>
      <trkpt lat="60.162" lon="24.660641557015882"><time>2026-07-10T09:05:51.000Z</time></trkpt>
      <trkpt lat="60.162" lon="24.660516036201006"><time>2026-07-10T09:05:52.000Z</time></trkpt>
      <trkpt lat="60.162" lon="24.66039051538613"><time>2026-07-10T09:05:53.000Z</time></trkpt>
      <trkpt lat="60.162" lon="24.660264994571254"><time>2026-07-10T09:05:54.000Z</time></trkpt>
      <trkpt lat="60.162" lon="24.660139473756374"><time>2026-07-10T09:05:55.000Z</time></trkpt>
      <trkpt lat="60.162" lon="24.660013952941497"><time>2026-07-10T09:05:56.000Z</time></trkpt>
      <trkpt lat="60.162" lon="24.65988843212662"><time>2026-07-10T09:05:57.000Z</time></trkpt>
      <trkpt lat="60.162" lon="24.65976291131174"><time>2026-07-10T09:05:58.000Z</time></trkpt>
      <trkpt lat="60.162" lon="24.659637390496865"><time>2026-07-10T09:05:59.000Z</time></trkpt>
      <trkpt lat="60.162" lon="24.65951186968199"><time>2026-07-10T09:06:00.000Z</time></trkpt>
      <trkpt lat="60.162" lon="24.65938634886711"><time>2026-07-10T09:06:01.000Z</time></trkpt>
      <trkpt lat="60.162" lon="24.659260828052233"><time>2026-07-10T09:06:02.000Z</time></trkpt>
      <trkpt lat="60.162" lon="24.659135307237356"><time>2026-07-10T09:06:03.000Z</time></trkpt>
      <trkpt lat="60.162" lon="24.65900978642248"><time>2026-07-10T09:06:04.000Z</time></trkpt>
      <trkpt lat="60.162" lon="24.6588842656076"><time>2026-07-10T09:06:05.000Z</time></trkpt>
      <trkpt lat="60.162" lon="24.658758744792724"><time>2026-07-10T09:06:06.000Z</time></trkpt>
      <trkpt lat="60.162" lon="24.658633223977848"><time>2026-07-10T09:06:07.000Z</time></trkpt>
      <trkpt lat="60.162" lon="24.658507703162968"><time>2026-07-10T09:06:08.000Z</time></trkpt>
      <trkpt lat="60.162" lon="24.65838218234809"><time>2026-07-10T09:06:09.000Z</time></trkpt>
      <trkpt lat="60.162" lon="24.658256661533215"><time>2026-07-10T09:06:10.000Z</time></trkpt>
      <trkpt lat="60.162" lon="24.658131140718336"><time>2026-07-10T09:06:11.000Z</time></trkpt>
      <trkpt lat="60.162" lon="24.65800561990346"><time>2026-07-10T09:06:12.000Z</time></trkpt>
      <trkpt lat="60.162" lon="24.657880099088583"><time>2026-07-10T09:06:13.000Z</time></trkpt>
      <trkpt lat="60.162" lon="24.657754578273703"><time>2026-07-10T09:06:14.000Z</time></trkpt>
      <trkpt lat="60.162" lon="24.657629057458827"><time>2026-07-10T09:06:15.000Z</time></trkpt>
      <trkpt lat="60.162" lon="24.65750353664395"><time>2026-07-10T09:06:16.000Z</time></trkpt>
      <trkpt lat="60.162" lon="24.657378015829075"><time>2026-07-10T09:06:17.000Z</time></trkpt>
      <trkpt lat="60.162" lon="24.657252495014195"><time>2026-07-10T09:06:18.000Z</time></trkpt>
      <trkpt lat="60.162" lon="24.65712697419932"><time>2026-07-10T09:06:19.000Z</time></trkpt>
      <trkpt lat="60.162" lon="24.657001453384442"><time>2026-07-10T09:06:20.000Z</time></trkpt>
      <trkpt lat="60.162" lon="24.656875932569562"><time>2026-07-10T09:06:21.000Z</time></trkpt>
      <trkpt lat="60.162" lon="24.656750411754686"><time>2026-07-10T09:06:22.000Z</time></trkpt>
      <trkpt lat="60.162" lon="24.65662489093981"><time>2026-07-10T09:06:23.000Z</time></trkpt>
      <trkpt lat="60.162" lon="24.65649937012493"><time>2026-07-10T09:06:24.000Z</time></trkpt>
      <trkpt lat="60.162" lon="24.656373849310054"><time>2026-07-10T09:06:25.000Z</time></trkpt>
      <trkpt lat="60.162" lon="24.656248328495177"><time>2026-07-10T09:06:26.000Z</time></trkpt>
      <trkpt lat="60.162" lon="24.6561228076803"><time>2026-07-10T09:06:27.000Z</time></trkpt>
      <trkpt lat="60.162" lon="24.65599728686542"><time>2026-07-10T09:06:28.000Z</time></trkpt>
      <trkpt lat="60.162" lon="24.655871766050545"><time>2026-07-10T09:06:29.000Z</time></trkpt>
      <trkpt lat="60.162" lon="24.65574624523567"><time>2026-07-10T09:06:30.000Z</time></trkpt>
      <trkpt lat="60.162" lon="24.65562072442079"><time>2026-07-10T09:06:31.000Z</time></trkpt>
      <trkpt lat="60.162" lon="24.655495203605913"><time>2026-07-10T09:06:32.000Z</time></trkpt>
      <trkpt lat="60.162" lon="24.655369682791036"><time>2026-07-10T09:06:33.000Z</time></trkpt>
      <trkpt lat="60.162" lon="24.655244161976157"><time>2026-07-10T09:06:34.000Z</time></trkpt>
      <trkpt lat="60.162" lon="24.65511864116128"><time>2026-07-10T09:06:35.000Z</time></trkpt>
      <trkpt lat="60.162" lon="24.654993120346404"><time>2026-07-10T09:06:36.000Z</time></trkpt>
      <trkpt lat="60.162" lon="24.654867599531528"><time>2026-07-10T09:06:37.000Z</time></trkpt>
      <trkpt lat="60.162" lon="24.654742078716648"><time>2026-07-10T09:06:38.000Z</time></trkpt>
      <trkpt lat="60.162" lon="24.65461655790177"><time>2026-07-10T09:06:39.000Z</time></trkpt>
      <trkpt lat="60.162" lon="24.654491037086895"><time>2026-07-10T09:06:40.000Z</time></trkpt>
      <trkpt lat="60.162" lon="24.654365516272016"><time>2026-07-10T09:06:41.000Z</time></trkpt>
      <trkpt lat="60.162" lon="24.65423999545714"><time>2026-07-10T09:06:42.000Z</time></trkpt>
      <trkpt lat="60.162" lon="24.654114474642263"><time>2026-07-10T09:06:43.000Z</time></trkpt>
      <trkpt lat="60.162" lon="24.653988953827383"><time>2026-07-10T09:06:44.000Z</time></trkpt>
      <trkpt lat="60.162" lon="24.653863433012507"><time>2026-07-10T09:06:45.000Z</time></trkpt>
      <trkpt lat="60.162" lon="24.65373791219763"><time>2026-07-10T09:06:46.000Z</time></trkpt>
      <trkpt lat="60.162" lon="24.65361239138275"><time>2026-07-10T09:06:47.000Z</time></trkpt>
      <trkpt lat="60.162" lon="24.653486870567875"><time>2026-07-10T09:06:48.000Z</time></trkpt>
      <trkpt lat="60.162" lon="24.653361349753"><time>2026-07-10T09:06:49.000Z</time></trkpt>
      <trkpt lat="60.162" lon="24.653235828938122"><time>2026-07-10T09:06:50.000Z</time></trkpt>
      <trkpt lat="60.162" lon="24.653110308123242"><time>2026-07-10T09:06:51.000Z</time></trkpt>
      <trkpt lat="60.162" lon="24.652984787308366"><time>2026-07-10T09:06:52.000Z</time></trkpt>
      <trkpt lat="60.162" lon="24.65285926649349"><time>2026-07-10T09:06:53.000Z</time></trkpt>
      <trkpt lat="60.162" lon="24.65273374567861"><time>2026-07-10T09:06:54.000Z</time></trkpt>
      <trkpt lat="60.162" lon="24.652608224863734"><time>2026-07-10T09:06:55.000Z</time></trkpt>
      <trkpt lat="60.162" lon="24.652482704048857"><time>2026-07-10T09:06:56.000Z</time></trkpt>
      <trkpt lat="60.162" lon="24.652357183233978"><time>2026-07-10T09:06:57.000Z</time></trkpt>
      <trkpt lat="60.162" lon="24.6522316624191"><time>2026-07-10T09:06:58.000Z</time></trkpt>
      <trkpt lat="60.162" lon="24.652106141604225"><time>2026-07-10T09:06:59.000Z</time></trkpt>
      <trkpt lat="60.162" lon="24.65198062078935"><time>2026-07-10T09:07:00.000Z</time></trkpt>
      <trkpt lat="60.162" lon="24.65185509997447"><time>2026-07-10T09:07:01.000Z</time></trkpt>
      <trkpt lat="60.162" lon="24.651729579159593"><time>2026-07-10T09:07:02.000Z</time></trkpt>
      <trkpt lat="60.162" lon="24.651604058344716"><time>2026-07-10T09:07:03.000Z</time></trkpt>
      <trkpt lat="60.162" lon="24.651478537529837"><time>2026-07-10T09:07:04.000Z</time></trkpt>
      <trkpt lat="60.162" lon="24.65135301671496"><time>2026-07-10T09:07:05.000Z</time></trkpt>
      <trkpt lat="60.162" lon="24.651227495900084"><time>2026-07-10T09:07:06.000Z</time></trkpt>
      <trkpt lat="60.162" lon="24.651101975085204"><time>2026-07-10T09:07:07.000Z</time></trkpt>
      <trkpt lat="60.162" lon="24.650976454270328"><time>2026-07-10T09:07:08.000Z</time></trkpt>
      <trkpt lat="60.162" lon="24.65085093345545"><time>2026-07-10T09:07:09.000Z</time></trkpt>
      <trkpt lat="60.162" lon="24.650725412640572"><time>2026-07-10T09:07:10.000Z</time></trkpt>
      <trkpt lat="60.162" lon="24.650599891825696"><time>2026-07-10T09:07:11.000Z</time></trkpt>
      <trkpt lat="60.162" lon="24.65047437101082"><time>2026-07-10T09:07:12.000Z</time></trkpt>
      <trkpt lat="60.162" lon="24.650348850195943"><time>2026-07-10T09:07:13.000Z</time></trkpt>
      <trkpt lat="60.162" lon="24.650223329381063"><time>2026-07-10T09:07:14.000Z</time></trkpt>
      <trkpt lat="60.162" lon="24.650097808566187"><time>2026-07-10T09:07:15.000Z</time></trkpt>
      <trkpt lat="60.161986211787976" lon="24.65"><time>2026-07-10T09:07:16.000Z</time></trkpt>
      <trkpt lat="60.16192375898494" lon="24.65"><time>2026-07-10T09:07:17.000Z</time></trkpt>
      <trkpt lat="60.161861306181905" lon="24.65"><time>2026-07-10T09:07:18.000Z</time></trkpt>
      <trkpt lat="60.16179885337886" lon="24.65"><time>2026-07-10T09:07:19.000Z</time></trkpt>
      <trkpt lat="60.161736400575826" lon="24.65"><time>2026-07-10T09:07:20.000Z</time></trkpt>
      <trkpt lat="60.16167394777279" lon="24.65"><time>2026-07-10T09:07:21.000Z</time></trkpt>
      <trkpt lat="60.161611494969755" lon="24.65"><time>2026-07-10T09:07:22.000Z</time></trkpt>
      <trkpt lat="60.16154904216672" lon="24.65"><time>2026-07-10T09:07:23.000Z</time></trkpt>
      <trkpt lat="60.16148658936368" lon="24.65"><time>2026-07-10T09:07:24.000Z</time></trkpt>
      <trkpt lat="60.16142413656065" lon="24.65"><time>2026-07-10T09:07:25.000Z</time></trkpt>
      <trkpt lat="60.16136168375761" lon="24.65"><time>2026-07-10T09:07:26.000Z</time></trkpt>
      <trkpt lat="60.161299230954576" lon="24.65"><time>2026-07-10T09:07:27.000Z</time></trkpt>
      <trkpt lat="60.16123677815154" lon="24.65"><time>2026-07-10T09:07:28.000Z</time></trkpt>
      <trkpt lat="60.1611743253485" lon="24.65"><time>2026-07-10T09:07:29.000Z</time></trkpt>
      <trkpt lat="60.16111187254546" lon="24.65"><time>2026-07-10T09:07:30.000Z</time></trkpt>
      <trkpt lat="60.161049419742426" lon="24.65"><time>2026-07-10T09:07:31.000Z</time></trkpt>
      <trkpt lat="60.16098696693939" lon="24.65"><time>2026-07-10T09:07:32.000Z</time></trkpt>
      <trkpt lat="60.160924514136354" lon="24.65"><time>2026-07-10T09:07:33.000Z</time></trkpt>
      <trkpt lat="60.16086206133332" lon="24.65"><time>2026-07-10T09:07:34.000Z</time></trkpt>
      <trkpt lat="60.16079960853028" lon="24.65"><time>2026-07-10T09:07:35.000Z</time></trkpt>
      <trkpt lat="60.16073715572725" lon="24.65"><time>2026-07-10T09:07:36.000Z</time></trkpt>
      <trkpt lat="60.16067470292421" lon="24.65"><time>2026-07-10T09:07:37.000Z</time></trkpt>
      <trkpt lat="60.160612250121176" lon="24.65"><time>2026-07-10T09:07:38.000Z</time></trkpt>
      <trkpt lat="60.16054979731813" lon="24.65"><time>2026-07-10T09:07:39.000Z</time></trkpt>
      <trkpt lat="60.1604873445151" lon="24.65"><time>2026-07-10T09:07:40.000Z</time></trkpt>
      <trkpt lat="60.16042489171206" lon="24.65"><time>2026-07-10T09:07:41.000Z</time></trkpt>
      <trkpt lat="60.160362438909026" lon="24.65"><time>2026-07-10T09:07:42.000Z</time></trkpt>
      <trkpt lat="60.16029998610599" lon="24.65"><time>2026-07-10T09:07:43.000Z</time></trkpt>
      <trkpt lat="60.160237533302954" lon="24.65"><time>2026-07-10T09:07:44.000Z</time></trkpt>
      <trkpt lat="60.16017508049992" lon="24.65"><time>2026-07-10T09:07:45.000Z</time></trkpt>
      <trkpt lat="60.16011262769688" lon="24.65"><time>2026-07-10T09:07:46.000Z</time></trkpt>
      <trkpt lat="60.16005017489385" lon="24.65"><time>2026-07-10T09:07:47.000Z</time></trkpt>
      <trkpt lat="60.15998772209081" lon="24.65"><time>2026-07-10T09:07:48.000Z</time></trkpt>
      <trkpt lat="60.159925269287776" lon="24.65"><time>2026-07-10T09:07:49.000Z</time></trkpt>
      <trkpt lat="60.15986281648473" lon="24.65"><time>2026-07-10T09:07:50.000Z</time></trkpt>
      <trkpt lat="60.1598003636817" lon="24.65"><time>2026-07-10T09:07:51.000Z</time></trkpt>
      <trkpt lat="60.15973791087866" lon="24.65"><time>2026-07-10T09:07:52.000Z</time></trkpt>
      <trkpt lat="60.159675458075625" lon="24.65"><time>2026-07-10T09:07:53.000Z</time></trkpt>
      <trkpt lat="60.15961300527259" lon="24.65"><time>2026-07-10T09:07:54.000Z</time></trkpt>
      <trkpt lat="60.159550552469554" lon="24.65"><time>2026-07-10T09:07:55.000Z</time></trkpt>
      <trkpt lat="60.15948809966652" lon="24.65"><time>2026-07-10T09:07:56.000Z</time></trkpt>
      <trkpt lat="60.15942564686348" lon="24.65"><time>2026-07-10T09:07:57.000Z</time></trkpt>
      <trkpt lat="60.15936319406045" lon="24.65"><time>2026-07-10T09:07:58.000Z</time></trkpt>
      <trkpt lat="60.15930074125741" lon="24.65"><time>2026-07-10T09:07:59.000Z</time></trkpt>
      <trkpt lat="60.15923828845437" lon="24.65"><time>2026-07-10T09:08:00.000Z</time></trkpt>
      <trkpt lat="60.15917583565133" lon="24.65"><time>2026-07-10T09:08:01.000Z</time></trkpt>
      <trkpt lat="60.1591133828483" lon="24.65"><time>2026-07-10T09:08:02.000Z</time></trkpt>
      <trkpt lat="60.15905093004526" lon="24.65"><time>2026-07-10T09:08:03.000Z</time></trkpt>
      <trkpt lat="60.158988477242225" lon="24.65"><time>2026-07-10T09:08:04.000Z</time></trkpt>
      <trkpt lat="60.15892602443919" lon="24.65"><time>2026-07-10T09:08:05.000Z</time></trkpt>
      <trkpt lat="60.158863571636154" lon="24.65"><time>2026-07-10T09:08:06.000Z</time></trkpt>
      <trkpt lat="60.15880111883312" lon="24.65"><time>2026-07-10T09:08:07.000Z</time></trkpt>
      <trkpt lat="60.15873866603008" lon="24.65"><time>2026-07-10T09:08:08.000Z</time></trkpt>
      <trkpt lat="60.15867621322705" lon="24.65"><time>2026-07-10T09:08:09.000Z</time></trkpt>
      <trkpt lat="60.158613760424004" lon="24.65"><time>2026-07-10T09:08:10.000Z</time></trkpt>
      <trkpt lat="60.15855130762097" lon="24.65"><time>2026-07-10T09:08:11.000Z</time></trkpt>
      <trkpt lat="60.15848885481793" lon="24.65"><time>2026-07-10T09:08:12.000Z</time></trkpt>
      <trkpt lat="60.158426402014896" lon="24.65"><time>2026-07-10T09:08:13.000Z</time></trkpt>
      <trkpt lat="60.15836394921186" lon="24.65"><time>2026-07-10T09:08:14.000Z</time></trkpt>
      <trkpt lat="60.158301496408825" lon="24.65"><time>2026-07-10T09:08:15.000Z</time></trkpt>
      <trkpt lat="60.15823904360579" lon="24.65"><time>2026-07-10T09:08:16.000Z</time></trkpt>
      <trkpt lat="60.15817659080275" lon="24.65"><time>2026-07-10T09:08:17.000Z</time></trkpt>
      <trkpt lat="60.15811413799972" lon="24.65"><time>2026-07-10T09:08:18.000Z</time></trkpt>
      <trkpt lat="60.15805168519668" lon="24.65"><time>2026-07-10T09:08:19.000Z</time></trkpt>
      <trkpt lat="60.157989232393646" lon="24.65"><time>2026-07-10T09:08:20.000Z</time></trkpt>
      <trkpt lat="60.1579267795906" lon="24.65"><time>2026-07-10T09:08:21.000Z</time></trkpt>
      <trkpt lat="60.15786432678757" lon="24.65"><time>2026-07-10T09:08:22.000Z</time></trkpt>
      <trkpt lat="60.15780187398453" lon="24.65"><time>2026-07-10T09:08:23.000Z</time></trkpt>
      <trkpt lat="60.157739421181496" lon="24.65"><time>2026-07-10T09:08:24.000Z</time></trkpt>
      <trkpt lat="60.15767696837846" lon="24.65"><time>2026-07-10T09:08:25.000Z</time></trkpt>
      <trkpt lat="60.157614515575425" lon="24.65"><time>2026-07-10T09:08:26.000Z</time></trkpt>
      <trkpt lat="60.15755206277239" lon="24.65"><time>2026-07-10T09:08:27.000Z</time></trkpt>
      <trkpt lat="60.15748960996935" lon="24.65"><time>2026-07-10T09:08:28.000Z</time></trkpt>
      <trkpt lat="60.15742715716632" lon="24.65"><time>2026-07-10T09:08:29.000Z</time></trkpt>
      <trkpt lat="60.15736470436328" lon="24.65"><time>2026-07-10T09:08:30.000Z</time></trkpt>
      <trkpt lat="60.15730225156024" lon="24.65"><time>2026-07-10T09:08:31.000Z</time></trkpt>
      <trkpt lat="60.1572397987572" lon="24.65"><time>2026-07-10T09:08:32.000Z</time></trkpt>
      <trkpt lat="60.15717734595417" lon="24.65"><time>2026-07-10T09:08:33.000Z</time></trkpt>
      <trkpt lat="60.15711489315113" lon="24.65"><time>2026-07-10T09:08:34.000Z</time></trkpt>
      <trkpt lat="60.157052440348096" lon="24.65"><time>2026-07-10T09:08:35.000Z</time></trkpt>
      <trkpt lat="60.15698998754506" lon="24.65"><time>2026-07-10T09:08:36.000Z</time></trkpt>
      <trkpt lat="60.156927534742024" lon="24.65"><time>2026-07-10T09:08:37.000Z</time></trkpt>
      <trkpt lat="60.15686508193899" lon="24.65"><time>2026-07-10T09:08:38.000Z</time></trkpt>
      <trkpt lat="60.15680262913595" lon="24.65"><time>2026-07-10T09:08:39.000Z</time></trkpt>
      <trkpt lat="60.15674017633292" lon="24.65"><time>2026-07-10T09:08:40.000Z</time></trkpt>
      <trkpt lat="60.15667772352988" lon="24.65"><time>2026-07-10T09:08:41.000Z</time></trkpt>
      <trkpt lat="60.15661527072684" lon="24.65"><time>2026-07-10T09:08:42.000Z</time></trkpt>
      <trkpt lat="60.1565528179238" lon="24.65"><time>2026-07-10T09:08:43.000Z</time></trkpt>
      <trkpt lat="60.15649036512077" lon="24.65"><time>2026-07-10T09:08:44.000Z</time></trkpt>
      <trkpt lat="60.15642791231773" lon="24.65"><time>2026-07-10T09:08:45.000Z</time></trkpt>
      <trkpt lat="60.156365459514696" lon="24.65"><time>2026-07-10T09:08:46.000Z</time></trkpt>
      <trkpt lat="60.15630300671166" lon="24.65"><time>2026-07-10T09:08:47.000Z</time></trkpt>
      <trkpt lat="60.156240553908624" lon="24.65"><time>2026-07-10T09:08:48.000Z</time></trkpt>
      <trkpt lat="60.15617810110559" lon="24.65"><time>2026-07-10T09:08:49.000Z</time></trkpt>
      <trkpt lat="60.15611564830255" lon="24.65"><time>2026-07-10T09:08:50.000Z</time></trkpt>
      <trkpt lat="60.15605319549952" lon="24.65"><time>2026-07-10T09:08:51.000Z</time></trkpt>
      <trkpt lat="60.155990742696474" lon="24.65"><time>2026-07-10T09:08:52.000Z</time></trkpt>
      <trkpt lat="60.15592828989344" lon="24.65"><time>2026-07-10T09:08:53.000Z</time></trkpt>
      <trkpt lat="60.1558658370904" lon="24.65"><time>2026-07-10T09:08:54.000Z</time></trkpt>
      <trkpt lat="60.15580338428737" lon="24.65"><time>2026-07-10T09:08:55.000Z</time></trkpt>
      <trkpt lat="60.15574093148433" lon="24.65"><time>2026-07-10T09:08:56.000Z</time></trkpt>
      <trkpt lat="60.155678478681295" lon="24.65"><time>2026-07-10T09:08:57.000Z</time></trkpt>
      <trkpt lat="60.15561602587826" lon="24.65"><time>2026-07-10T09:08:58.000Z</time></trkpt>
      <trkpt lat="60.155553573075224" lon="24.65"><time>2026-07-10T09:08:59.000Z</time></trkpt>
      <trkpt lat="60.15549112027219" lon="24.65"><time>2026-07-10T09:09:00.000Z</time></trkpt>
      <trkpt lat="60.15542866746915" lon="24.65"><time>2026-07-10T09:09:01.000Z</time></trkpt>
      <trkpt lat="60.15536621466611" lon="24.65"><time>2026-07-10T09:09:02.000Z</time></trkpt>
      <trkpt lat="60.155303761863074" lon="24.65"><time>2026-07-10T09:09:03.000Z</time></trkpt>
      <trkpt lat="60.15524130906004" lon="24.65"><time>2026-07-10T09:09:04.000Z</time></trkpt>
      <trkpt lat="60.155178856257" lon="24.65"><time>2026-07-10T09:09:05.000Z</time></trkpt>
      <trkpt lat="60.15511640345397" lon="24.65"><time>2026-07-10T09:09:06.000Z</time></trkpt>
      <trkpt lat="60.15505395065093" lon="24.65"><time>2026-07-10T09:09:07.000Z</time></trkpt>
      <trkpt lat="60.154991497847895" lon="24.65"><time>2026-07-10T09:09:08.000Z</time></trkpt>
      <trkpt lat="60.15492904504486" lon="24.65"><time>2026-07-10T09:09:09.000Z</time></trkpt>
      <trkpt lat="60.154866592241824" lon="24.65"><time>2026-07-10T09:09:10.000Z</time></trkpt>
      <trkpt lat="60.15480413943879" lon="24.65"><time>2026-07-10T09:09:11.000Z</time></trkpt>
      <trkpt lat="60.15474168663575" lon="24.65"><time>2026-07-10T09:09:12.000Z</time></trkpt>
      <trkpt lat="60.15467923383271" lon="24.65"><time>2026-07-10T09:09:13.000Z</time></trkpt>
      <trkpt lat="60.154616781029674" lon="24.65"><time>2026-07-10T09:09:14.000Z</time></trkpt>
      <trkpt lat="60.15455432822664" lon="24.65"><time>2026-07-10T09:09:15.000Z</time></trkpt>
      <trkpt lat="60.1544918754236" lon="24.65"><time>2026-07-10T09:09:16.000Z</time></trkpt>
      <trkpt lat="60.15442942262057" lon="24.65"><time>2026-07-10T09:09:17.000Z</time></trkpt>
      <trkpt lat="60.15436696981753" lon="24.65"><time>2026-07-10T09:09:18.000Z</time></trkpt>
      <trkpt lat="60.154304517014495" lon="24.65"><time>2026-07-10T09:09:19.000Z</time></trkpt>
      <trkpt lat="60.15424206421146" lon="24.65"><time>2026-07-10T09:09:20.000Z</time></trkpt>
      <trkpt lat="60.15417961140842" lon="24.65"><time>2026-07-10T09:09:21.000Z</time></trkpt>
      <trkpt lat="60.15411715860539" lon="24.65"><time>2026-07-10T09:09:22.000Z</time></trkpt>
      <trkpt lat="60.154054705802345" lon="24.65"><time>2026-07-10T09:09:23.000Z</time></trkpt>
      <trkpt lat="60.15399225299931" lon="24.65"><time>2026-07-10T09:09:24.000Z</time></trkpt>
      <trkpt lat="60.15392980019627" lon="24.65"><time>2026-07-10T09:09:25.000Z</time></trkpt>
      <trkpt lat="60.15386734739324" lon="24.65"><time>2026-07-10T09:09:26.000Z</time></trkpt>
      <trkpt lat="60.1538048945902" lon="24.65"><time>2026-07-10T09:09:27.000Z</time></trkpt>
      <trkpt lat="60.153742441787166" lon="24.65"><time>2026-07-10T09:09:28.000Z</time></trkpt>
      <trkpt lat="60.15367998898413" lon="24.65"><time>2026-07-10T09:09:29.000Z</time></trkpt>
      <trkpt lat="60.153617536181095" lon="24.65"><time>2026-07-10T09:09:30.000Z</time></trkpt>
      <trkpt lat="60.15355508337806" lon="24.65"><time>2026-07-10T09:09:31.000Z</time></trkpt>
      <trkpt lat="60.15349263057502" lon="24.65"><time>2026-07-10T09:09:32.000Z</time></trkpt>
      <trkpt lat="60.15343017777198" lon="24.65"><time>2026-07-10T09:09:33.000Z</time></trkpt>
      <trkpt lat="60.153367724968945" lon="24.65"><time>2026-07-10T09:09:34.000Z</time></trkpt>
      <trkpt lat="60.15330527216591" lon="24.65"><time>2026-07-10T09:09:35.000Z</time></trkpt>
      <trkpt lat="60.15324281936287" lon="24.65"><time>2026-07-10T09:09:36.000Z</time></trkpt>
      <trkpt lat="60.15318036655984" lon="24.65"><time>2026-07-10T09:09:37.000Z</time></trkpt>
      <trkpt lat="60.1531179137568" lon="24.65"><time>2026-07-10T09:09:38.000Z</time></trkpt>
      <trkpt lat="60.153055460953766" lon="24.65"><time>2026-07-10T09:09:39.000Z</time></trkpt>
      <trkpt lat="60.15299300815073" lon="24.65"><time>2026-07-10T09:09:40.000Z</time></trkpt>
      <trkpt lat="60.152930555347695" lon="24.65"><time>2026-07-10T09:09:41.000Z</time></trkpt>
      <trkpt lat="60.15286810254466" lon="24.65"><time>2026-07-10T09:09:42.000Z</time></trkpt>
      <trkpt lat="60.15280564974162" lon="24.65"><time>2026-07-10T09:09:43.000Z</time></trkpt>
      <trkpt lat="60.15274319693858" lon="24.65"><time>2026-07-10T09:09:44.000Z</time></trkpt>
      <trkpt lat="60.152680744135544" lon="24.65"><time>2026-07-10T09:09:45.000Z</time></trkpt>
      <trkpt lat="60.15261829133251" lon="24.65"><time>2026-07-10T09:09:46.000Z</time></trkpt>
      <trkpt lat="60.15255583852947" lon="24.65"><time>2026-07-10T09:09:47.000Z</time></trkpt>
      <trkpt lat="60.15249338572644" lon="24.65"><time>2026-07-10T09:09:48.000Z</time></trkpt>
      <trkpt lat="60.1524309329234" lon="24.65"><time>2026-07-10T09:09:49.000Z</time></trkpt>
      <trkpt lat="60.152368480120366" lon="24.65"><time>2026-07-10T09:09:50.000Z</time></trkpt>
      <trkpt lat="60.15230602731733" lon="24.65"><time>2026-07-10T09:09:51.000Z</time></trkpt>
      <trkpt lat="60.152243574514294" lon="24.65"><time>2026-07-10T09:09:52.000Z</time></trkpt>
      <trkpt lat="60.15218112171126" lon="24.65"><time>2026-07-10T09:09:53.000Z</time></trkpt>
      <trkpt lat="60.152118668908216" lon="24.65"><time>2026-07-10T09:09:54.000Z</time></trkpt>
      <trkpt lat="60.15205621610518" lon="24.65"><time>2026-07-10T09:09:55.000Z</time></trkpt>
      <trkpt lat="60.151993763302144" lon="24.65"><time>2026-07-10T09:09:56.000Z</time></trkpt>
      <trkpt lat="60.15193131049911" lon="24.65"><time>2026-07-10T09:09:57.000Z</time></trkpt>
      <trkpt lat="60.15186885769607" lon="24.65"><time>2026-07-10T09:09:58.000Z</time></trkpt>
      <trkpt lat="60.15180640489304" lon="24.65"><time>2026-07-10T09:09:59.000Z</time></trkpt>
      <trkpt lat="60.15174395209" lon="24.65"><time>2026-07-10T09:10:00.000Z</time></trkpt>
      <trkpt lat="60.151681499286966" lon="24.65"><time>2026-07-10T09:10:01.000Z</time></trkpt>
      <trkpt lat="60.15161904648393" lon="24.65"><time>2026-07-10T09:10:02.000Z</time></trkpt>
      <trkpt lat="60.151556593680894" lon="24.65"><time>2026-07-10T09:10:03.000Z</time></trkpt>
      <trkpt lat="60.15149414087785" lon="24.65"><time>2026-07-10T09:10:04.000Z</time></trkpt>
      <trkpt lat="60.151431688074815" lon="24.65"><time>2026-07-10T09:10:05.000Z</time></trkpt>
      <trkpt lat="60.15136923527178" lon="24.65"><time>2026-07-10T09:10:06.000Z</time></trkpt>
      <trkpt lat="60.151306782468744" lon="24.65"><time>2026-07-10T09:10:07.000Z</time></trkpt>
      <trkpt lat="60.15124432966571" lon="24.65"><time>2026-07-10T09:10:08.000Z</time></trkpt>
      <trkpt lat="60.15118187686267" lon="24.65"><time>2026-07-10T09:10:09.000Z</time></trkpt>
      <trkpt lat="60.15111942405964" lon="24.65"><time>2026-07-10T09:10:10.000Z</time></trkpt>
      <trkpt lat="60.1510569712566" lon="24.65"><time>2026-07-10T09:10:11.000Z</time></trkpt>
      <trkpt lat="60.150994518453565" lon="24.65"><time>2026-07-10T09:10:12.000Z</time></trkpt>
      <trkpt lat="60.15093206565053" lon="24.65"><time>2026-07-10T09:10:13.000Z</time></trkpt>
      <trkpt lat="60.150869612847494" lon="24.65"><time>2026-07-10T09:10:14.000Z</time></trkpt>
      <trkpt lat="60.15080716004445" lon="24.65"><time>2026-07-10T09:10:15.000Z</time></trkpt>
      <trkpt lat="60.150744707241415" lon="24.65"><time>2026-07-10T09:10:16.000Z</time></trkpt>
      <trkpt lat="60.15068225443838" lon="24.65"><time>2026-07-10T09:10:17.000Z</time></trkpt>
      <trkpt lat="60.150619801635344" lon="24.65"><time>2026-07-10T09:10:18.000Z</time></trkpt>
      <trkpt lat="60.15055734883231" lon="24.65"><time>2026-07-10T09:10:19.000Z</time></trkpt>
      <trkpt lat="60.15049489602927" lon="24.65"><time>2026-07-10T09:10:20.000Z</time></trkpt>
      <trkpt lat="60.15043244322624" lon="24.65"><time>2026-07-10T09:10:21.000Z</time></trkpt>
      <trkpt lat="60.1503699904232" lon="24.65"><time>2026-07-10T09:10:22.000Z</time></trkpt>
      <trkpt lat="60.150307537620165" lon="24.65"><time>2026-07-10T09:10:23.000Z</time></trkpt>
      <trkpt lat="60.15024508481713" lon="24.65"><time>2026-07-10T09:10:24.000Z</time></trkpt>
      <trkpt lat="60.150182632014086" lon="24.65"><time>2026-07-10T09:10:25.000Z</time></trkpt>
      <trkpt lat="60.15012017921105" lon="24.65"><time>2026-07-10T09:10:26.000Z</time></trkpt>
      <trkpt lat="60.150057726408015" lon="24.65"><time>2026-07-10T09:10:27.000Z</time></trkpt>
    </trkseg>
  </trk>
</gpx>
