{
  "note": "ILLUSTRATIVE SHAPE ONLY - replace via npm run probe:ors (WR-005)",
  "type": "FeatureCollection",
  "features": [
    {
      "type": "Feature",
      "properties": {
        "summary": { "distance": 51840.3, "duration": 7412.5, "ascent": 382.0, "descent": 382.0 },
        "segments": [
          {
            "distance": 51840.3, "duration": 7412.5,
            "steps": [
              { "distance": 420.1, "duration": 60.2, "type": 11, "instruction": "Head north on Kipparinkatu", "way_points": [0, 3] },
              { "distance": 1210.4, "duration": 170.0, "type": 0, "instruction": "Turn left onto Rantaraitti", "way_points": [3, 9] }
            ]
          }
        ],
        "extras": {
          "surface": { "values": [[0, 5, 3], [5, 9, 1]] },
          "waytypes": { "values": [[0, 9, 3]] },
          "steepness": { "values": [[0, 9, 0]] }
        }
      },
      "geometry": {
        "type": "LineString",
        "coordinates": [
          [24.650, 60.150, 12.0], [24.652, 60.153, 13.5], [24.655, 60.156, 15.0],
          [24.659, 60.158, 16.2], [24.664, 60.161, 18.0], [24.668, 60.165, 21.5],
          [24.672, 60.168, 24.0], [24.676, 60.170, 22.0], [24.680, 60.173, 20.0],
          [24.683, 60.176, 19.0]
        ]
      }
    }
  ]
}
